{
"type": "FeatureCollection",
"name": "doisaket-district",
"crs": { "type": "name", "properties": { "name": "urn:ogc:def:crs:OGC:1.3:CRS84" } },
"features": [
{ "type": "Feature", "properties": { "OBJECTID": 524, "ADMIN_ID1": "50", "NAME1": "เชียงใหม่", "NAME_ENG1": "CHIANG MAI", "ADMIN_ID2": "5005", "NAME2": "ดอยสะเก็ด", "NAME_ENG2": "DOI SAKET", "TYPE": 1, "VERSION": "2023-10N", "Shape__Area": 0.055994908528305132, "Shape__Length": 1.5858685037519471 }, "geometry": { "type": "MultiPolygon", "coordinates": [ [ [ [ 99.346160177000101, 19.085706617 ], [ 99.346595021, 19.085660953000101 ], [ 99.346904390000105, 19.085699574 ], [ 99.347241621000094, 19.085914573 ], [ 99.347537764, 19.086201529 ], [ 99.348012352000097, 19.086363994000099 ], [ 99.348417961000095, 19.0864089680001 ], [ 99.348947682000102, 19.086643204 ], [ 99.349312489000098, 19.086897356000101 ], [ 99.349670087, 19.0869881560001 ], [ 99.350192267000097, 19.086902222 ], [ 99.350603884000094, 19.0871183030001 ], [ 99.350990221000103, 19.087220888 ], [ 99.351381874000097, 19.087086315 ], [ 99.351965503000102, 19.086885771 ], [ 99.352240179, 19.0867676280001 ], [ 99.35261038, 19.086705010000099 ], [ 99.353099192000101, 19.086707179 ], [ 99.353579993, 19.086555964000102 ], [ 99.353970628000098, 19.086299290000099 ], [ 99.354372934000097, 19.085796468000101 ], [ 99.354702148000101, 19.085405362000099 ], [ 99.354965510000099, 19.0850980700001 ], [ 99.355375555000094, 19.084783498 ], [ 99.355880933, 19.08446876 ], [ 99.356891917, 19.083943844 ], [ 99.357353460000098, 19.083712855 ], [ 99.357691644000099, 19.083628051000101 ], [ 99.358089134000096, 19.0835283750001 ], [ 99.358838077000101, 19.083428901 ], [ 99.359346636000097, 19.083408304 ], [ 99.359793137000096, 19.083296349 ], [ 99.360278339, 19.083051729 ], [ 99.360666304000105, 19.082716276 ], [ 99.361243806000104, 19.082299513000098 ], [ 99.362101656, 19.081737272000101 ], [ 99.363485733000104, 19.080800201 ], [ 99.3644521410001, 19.0800382790001 ], [ 99.364620338000094, 19.079814811000102 ], [ 99.36485414, 19.079416899 ], [ 99.365065796000096, 19.078942338 ], [ 99.365174512000095, 19.078356424 ], [ 99.365217467, 19.077875218 ], [ 99.365112896000099, 19.077010812 ], [ 99.364846722, 19.0760281710001 ], [ 99.364616248000104, 19.075303208 ], [ 99.3641431060001, 19.073978419000099 ], [ 99.363998582000093, 19.073470474 ], [ 99.363971772000099, 19.073135832 ], [ 99.364122333000097, 19.072597317 ], [ 99.364411906, 19.071697029000099 ], [ 99.364657659, 19.070804039000102 ], [ 99.364942827, 19.070047327000101 ], [ 99.365117103, 19.069679104 ], [ 99.36548328, 19.069239084000099 ], [ 99.366043505000107, 19.068884988 ], [ 99.366665605, 19.068530749 ], [ 99.367362032000102, 19.068211677 ], [ 99.3681039370001, 19.067939562 ], [ 99.368788188000096, 19.067710704 ], [ 99.369604553, 19.067536509 ], [ 99.370610657, 19.0673540660001 ], [ 99.371406484, 19.067219107 ], [ 99.372856276000107, 19.067185963 ], [ 99.373654933000097, 19.067167699 ], [ 99.374216753, 19.067085245 ], [ 99.375608676000098, 19.066699065 ], [ 99.3767440230001, 19.066313399 ], [ 99.378038322000094, 19.065985484000102 ], [ 99.379162078, 19.065878627000099 ], [ 99.380187935, 19.065702264 ], [ 99.380976405000098, 19.065489052 ], [ 99.381140299, 19.065444733 ], [ 99.381591780000093, 19.065199848000098 ], [ 99.3819858210001, 19.064829517000099 ], [ 99.382359813000093, 19.064478027000099 ], [ 99.383584285, 19.063312633000098 ], [ 99.383866292000107, 19.062877361000101 ], [ 99.383894926, 19.062343080000101 ], [ 99.383580103, 19.061758017 ], [ 99.383259767000098, 19.061172981 ], [ 99.382967107000098, 19.060661093 ], [ 99.382823228000106, 19.0602796310001 ], [ 99.382656368000099, 19.059715190000102 ], [ 99.382655390000096, 19.059287739000101 ], [ 99.383020548, 19.058179858000099 ], [ 99.383386399000102, 19.0573634960001 ], [ 99.383683953000101, 19.056911997 ], [ 99.3839789150001, 19.056780118000098 ], [ 99.38434068, 19.056262652 ], [ 99.384406223, 19.055838487000099 ], [ 99.384719961000101, 19.055535192 ], [ 99.384538587000094, 19.055036027 ], [ 99.384112297000101, 19.054752507 ], [ 99.383876249000096, 19.05450776 ], [ 99.382748976000101, 19.053465118000101 ], [ 99.382437039000095, 19.052994398000099 ], [ 99.382093154000103, 19.052321587000101 ], [ 99.381866461000101, 19.051563625 ], [ 99.381879207000097, 19.051174662000101 ], [ 99.382042010000106, 19.050943770000099 ], [ 99.382327215, 19.050608486 ], [ 99.382480462, 19.0502874270001 ], [ 99.382530680000102, 19.049806205 ], [ 99.382232714000097, 19.049255614000099 ], [ 99.382078664000105, 19.048970271 ], [ 99.381927971, 19.048652952000101 ], [ 99.381831498000096, 19.0481993930001 ], [ 99.381904747000107, 19.047440811000101 ], [ 99.382005618000093, 19.046837748 ], [ 99.382147772000096, 19.046403140000098 ], [ 99.382064709000105, 19.0455199200001 ], [ 99.381722469000096, 19.044241458 ], [ 99.381526367, 19.043273841 ], [ 99.381366986, 19.042467484 ], [ 99.381317224, 19.0419029070001 ], [ 99.381473919000101, 19.041533815 ], [ 99.381800526000106, 19.0412796100001 ], [ 99.382175688000103, 19.041059873000101 ], [ 99.384639160000106, 19.03988543 ], [ 99.384993838000099, 19.039644556 ], [ 99.385449321000095, 19.039335221 ], [ 99.385721651, 19.039047313 ], [ 99.385951016, 19.038666538 ], [ 99.386032763000102, 19.037985934000101 ], [ 99.385972082000094, 19.0372951260001 ], [ 99.385934720000094, 19.036857293 ], [ 99.385982604, 19.036603664 ], [ 99.386340987, 19.035995741 ], [ 99.386549497, 19.035461596000101 ], [ 99.3868317740001, 19.0343321010001 ], [ 99.387018375000096, 19.033858763000101 ], [ 99.387450897000093, 19.03345047 ], [ 99.387771449000098, 19.0331478680001 ], [ 99.387872689000105, 19.032941276 ], [ 99.388074512000102, 19.0319836900001 ], [ 99.388121941000094, 19.031472794 ], [ 99.388103544, 19.031112814 ], [ 99.387963768000105, 19.030602235000099 ], [ 99.387964811000103, 19.030281385 ], [ 99.388090060000096, 19.0297752930001 ], [ 99.388058478000104, 19.029531186 ], [ 99.387891, 19.029120838 ], [ 99.387666018000104, 19.028590863 ], [ 99.387672969000107, 19.028178504 ], [ 99.387739556, 19.027913349000102 ], [ 99.387953559, 19.027560888 ], [ 99.388129194, 19.027092251000099 ], [ 99.388127735000097, 19.026690645 ], [ 99.388157024000094, 19.026137182000099 ], [ 99.3883569260001, 19.025821082 ], [ 99.38852217, 19.025525407 ], [ 99.388845588, 19.025129301 ], [ 99.389253876000097, 19.024852008 ], [ 99.389478545, 19.024512644 ], [ 99.389537539000102, 19.023914832000099 ], [ 99.389295345000093, 19.023538206000101 ], [ 99.389202771, 19.022910711000101 ], [ 99.389319475, 19.022468257000099 ], [ 99.389502172, 19.022144948000101 ], [ 99.389637744000098, 19.021799520000101 ], [ 99.389496008, 19.021277379 ], [ 99.389373894000101, 19.020903673000099 ], [ 99.389352583000104, 19.020609489 ], [ 99.3895606, 19.020263940000099 ], [ 99.390141984000095, 19.020104369 ], [ 99.390599897000101, 19.020171254 ], [ 99.391194017, 19.020200219000099 ], [ 99.392624042000094, 19.020248408 ], [ 99.393256558000104, 19.020273217000099 ], [ 99.393577291, 19.020237663 ], [ 99.394063596000095, 19.020018551000099 ], [ 99.394229187000093, 19.0197902100001 ], [ 99.394308478000099, 19.019346883 ], [ 99.394417971000095, 19.018903586 ], [ 99.394647123000098, 19.0185293390001 ], [ 99.395117070000097, 19.018470205 ], [ 99.395356901000099, 19.0182669450001 ], [ 99.395381552000103, 19.017807218 ], [ 99.395349105, 19.0171919420001 ], [ 99.395342652000096, 19.016686946 ], [ 99.395420515000097, 19.016266770000101 ], [ 99.395643037000099, 19.015999678000099 ], [ 99.395887993000102, 19.0156530850001 ], [ 99.3961592080001, 19.015162752 ], [ 99.396368683, 19.014784036 ], [ 99.39641736, 19.014304217000099 ], [ 99.396385426000094, 19.013966711 ], [ 99.396266418, 19.013670843000099 ], [ 99.396047422, 19.013221213000101 ], [ 99.396022124000098, 19.013055439 ], [ 99.396070368, 19.012561202 ], [ 99.396173039000104, 19.011973996000101 ], [ 99.396199165, 19.011859669 ], [ 99.396362365000101, 19.011215505000099 ], [ 99.396398481000105, 19.010622703 ], [ 99.396382615000107, 19.010292105000101 ], [ 99.396356250000096, 19.009742805 ], [ 99.396307304000103, 19.0093767450001 ], [ 99.396183985000107, 19.008988432 ], [ 99.395933177000103, 19.008688346 ], [ 99.395972050000097, 19.008195772 ], [ 99.396096489000101, 19.007931771000099 ], [ 99.396144051000107, 19.007514501000099 ], [ 99.396189818, 19.007005880000101 ], [ 99.396362744, 19.00673921 ], [ 99.396723839000103, 19.006315702000101 ], [ 99.396905357, 19.005958778 ], [ 99.39704557, 19.005476521 ], [ 99.397388331000101, 19.005209319000102 ], [ 99.397803551, 19.005010726 ], [ 99.398101813, 19.005031575 ], [ 99.398721275000099, 19.004985925 ], [ 99.398805064, 19.004375279 ], [ 99.399084271, 19.003963600000102 ], [ 99.399440459000104, 19.003644794 ], [ 99.3995883380001, 19.003133037000101 ], [ 99.399370768, 19.0028412570001 ], [ 99.399482481000106, 19.002320979 ], [ 99.399635602, 19.002110056 ], [ 99.400062011, 19.001756326000098 ], [ 99.400474433000099, 19.001454975000101 ], [ 99.400925632000096, 19.001191829 ], [ 99.401263641000099, 19.0008343820001 ], [ 99.401524853000097, 19.000481392 ], [ 99.401803435, 19.00014822 ], [ 99.401431177000106, 19.000033854 ], [ 99.400931992, 18.999827020000101 ], [ 99.400645582, 18.999646691000098 ], [ 99.4003792540001, 18.999425831000099 ], [ 99.399938809, 18.999244623 ], [ 99.399453181000098, 18.9991089170001 ], [ 99.398919604000099, 18.998989778000102 ], [ 99.398374962, 18.998834061 ], [ 99.397896462000105, 18.998756663000101 ], [ 99.397379391000101, 18.9986322620001 ], [ 99.39680759, 18.998617798000101 ], [ 99.396279743, 18.998587551000099 ], [ 99.395801466000094, 18.998604265 ], [ 99.395278973000103, 18.998516471000102 ], [ 99.394392956, 18.998136618 ], [ 99.393842497, 18.997850162000098 ], [ 99.39349014, 18.997636487 ], [ 99.393061198000098, 18.9975798840001 ], [ 99.392549462, 18.997387476 ], [ 99.392142098000093, 18.997158227000099 ], [ 99.391784025, 18.996855669000102 ], [ 99.391486576, 18.996605291 ], [ 99.3913429790001, 18.9963284130001 ], [ 99.391303194, 18.995768948 ], [ 99.391230242000105, 18.995131089 ], [ 99.391135512000105, 18.9945926350001 ], [ 99.3909310290001, 18.994132876 ], [ 99.390677628, 18.993913764000101 ], [ 99.390242652, 18.993621829000102 ], [ 99.389692283, 18.9933615140001 ], [ 99.38952636, 18.993303016 ], [ 99.388954998000102, 18.993101574 ], [ 99.388036070000098, 18.99273743 ], [ 99.387023535000097, 18.992310737 ], [ 99.386428678000101, 18.992118325 ], [ 99.386220307000102, 18.992050923 ], [ 99.385350938, 18.99172328 ], [ 99.383287836000093, 18.9910529480001 ], [ 99.382363112000107, 18.990552827 ], [ 99.381305730000093, 18.989728724 ], [ 99.380683024000106, 18.989071078000102 ], [ 99.380241948, 18.9885071950001 ], [ 99.380018812000102, 18.988159924000101 ], [ 99.379686189, 18.987642230000102 ], [ 99.379213136, 18.98691676 ], [ 99.379044291000099, 18.986574025 ], [ 99.378808211, 18.985810151000099 ], [ 99.378768451, 18.984802889 ], [ 99.378704032000101, 18.984154243 ], [ 99.378593354, 18.983648357 ], [ 99.378384046000093, 18.983294992 ], [ 99.377830827000096, 18.982929865000099 ], [ 99.377612681000102, 18.9826914490001 ], [ 99.377440138000097, 18.982231212 ], [ 99.377393424, 18.98195938 ], [ 99.377341845, 18.981354366000101 ], [ 99.377456254, 18.980127970000101 ], [ 99.377980179000104, 18.9783021480001 ], [ 99.378065406000104, 18.97757474 ], [ 99.378081976, 18.977393701 ], [ 99.377837584000105, 18.976699213000099 ], [ 99.377645904000104, 18.975948777 ], [ 99.377247922, 18.975483448 ], [ 99.37673885, 18.974965753 ], [ 99.376578428000101, 18.974756574 ], [ 99.376254639000095, 18.974268314 ], [ 99.376103111000106, 18.973874494 ], [ 99.376051932000095, 18.973444645 ], [ 99.376176073000096, 18.972823346 ], [ 99.377114209000098, 18.971316599 ], [ 99.377213964000106, 18.971017817000099 ], [ 99.377438015000095, 18.970169398000099 ], [ 99.377673492, 18.968627762 ], [ 99.377670915000095, 18.967484515 ], [ 99.377580886, 18.9667175320001 ], [ 99.377466242000096, 18.965977286000101 ], [ 99.377138143000096, 18.965213589 ], [ 99.376783295000095, 18.964614378 ], [ 99.37649537, 18.964068353000101 ], [ 99.3764819310001, 18.963674253 ], [ 99.376579540000094, 18.962420025 ], [ 99.376501878000099, 18.961972186 ], [ 99.376237318000094, 18.961677208 ], [ 99.375911912, 18.961382322000102 ], [ 99.375552460000094, 18.96083506 ], [ 99.375168552, 18.960153679 ], [ 99.37504713, 18.959724776 ], [ 99.375213607, 18.959497456000101 ], [ 99.375774171, 18.958885421 ], [ 99.376099213, 18.958587262 ], [ 99.376287752000096, 18.958462506 ], [ 99.377071343000097, 18.957832843000102 ], [ 99.378557385000093, 18.956710434000101 ], [ 99.379012696000103, 18.9564120040001 ], [ 99.379741717000101, 18.956162593 ], [ 99.380084562, 18.955981249 ], [ 99.38041574, 18.955806071 ], [ 99.380821706000106, 18.955470559 ], [ 99.381540632000096, 18.954987955 ], [ 99.3828732220001, 18.95366735 ], [ 99.383322752000097, 18.95315392 ], [ 99.383761224000096, 18.952619576000099 ], [ 99.384225162000106, 18.951870446 ], [ 99.384774660000105, 18.950651101000101 ], [ 99.3849442960001, 18.950121888000101 ], [ 99.3851909750001, 18.9484539810001 ], [ 99.385420802000098, 18.947795337000102 ], [ 99.38572034, 18.947054234000099 ], [ 99.386109268, 18.945952206000101 ], [ 99.386322395, 18.945428793000101 ], [ 99.38658946, 18.944493190000099 ], [ 99.386719689000103, 18.944036942 ], [ 99.386634840000099, 18.943474309000099 ], [ 99.386372871, 18.94285504 ], [ 99.386121122000105, 18.942281486000098 ], [ 99.386076546000098, 18.941793803000099 ], [ 99.386006951000098, 18.940687915000101 ], [ 99.385996222000102, 18.939918108 ], [ 99.385985918000102, 18.939178615000099 ], [ 99.385837788000103, 18.93765454 ], [ 99.38564124, 18.937196413 ], [ 99.385024759, 18.936628300000098 ], [ 99.384605156000106, 18.936241611000099 ], [ 99.384279587, 18.935886227 ], [ 99.384293376000102, 18.935375374 ], [ 99.384490394000096, 18.935021974000101 ], [ 99.384911661, 18.934440538 ], [ 99.384925166000102, 18.934171787 ], [ 99.384665022, 18.9337759370001 ], [ 99.384449582000101, 18.933398256 ], [ 99.3842094970001, 18.932943783 ], [ 99.38401745, 18.932393386000101 ], [ 99.383840377000098, 18.932138462000101 ], [ 99.383532341, 18.931818537 ], [ 99.383268038, 18.931645421 ], [ 99.3829065890001, 18.931300635000099 ], [ 99.382744661000103, 18.931005432000099 ], [ 99.382545092, 18.930663165000102 ], [ 99.382198233000096, 18.9304947370001 ], [ 99.381949931000094, 18.930413743 ], [ 99.3816463900001, 18.930100537 ], [ 99.381646635, 18.929831974 ], [ 99.381645369000097, 18.92927438 ], [ 99.381623063000106, 18.929028762 ], [ 99.381539654000093, 18.928635269 ], [ 99.381368199000093, 18.928049868000102 ], [ 99.380740864000103, 18.927176541000101 ], [ 99.379877546, 18.925767397000101 ], [ 99.379747223, 18.925554683 ], [ 99.379223508000095, 18.92436572 ], [ 99.378856011, 18.923139252000102 ], [ 99.378228625000105, 18.922186035 ], [ 99.377641418000096, 18.921716172000099 ], [ 99.376275111, 18.9212586780001 ], [ 99.375277910000094, 18.920526411 ], [ 99.374328470000094, 18.919232243000099 ], [ 99.373415626000096, 18.917955024 ], [ 99.372279347000102, 18.916918070000101 ], [ 99.371237051, 18.915129064 ], [ 99.370775433000105, 18.91422973 ], [ 99.370158018, 18.913578101 ], [ 99.3694153470001, 18.913259812 ], [ 99.369147642000101, 18.913298972000099 ], [ 99.368323747, 18.9134218720001 ], [ 99.367707914000107, 18.913489702 ], [ 99.367259604000097, 18.913344034 ], [ 99.366622166000099, 18.913012147000099 ], [ 99.366054435000095, 18.9127868210001 ], [ 99.364934636, 18.91285565 ], [ 99.364052732000104, 18.9128840230001 ], [ 99.363100396, 18.912712689 ], [ 99.362064117, 18.912568142000101 ], [ 99.361140541000097, 18.912743156 ], [ 99.360778828, 18.912941456000102 ], [ 99.36039966, 18.913250882000099 ], [ 99.359910022000093, 18.913411725000099 ], [ 99.359154151, 18.913466475000099 ], [ 99.356686795000101, 18.9136505540001 ], [ 99.355500828000103, 18.913726646 ], [ 99.354646551000101, 18.913581725 ], [ 99.354324043000105, 18.913329200000099 ], [ 99.3539576350001, 18.912747385 ], [ 99.352948504, 18.911626396 ], [ 99.351686178000094, 18.910482964 ], [ 99.350466304000093, 18.909552622 ], [ 99.348826905000095, 18.908836239 ], [ 99.347734285000101, 18.908505195 ], [ 99.346754630000106, 18.908640259 ], [ 99.346145176000107, 18.908993644000098 ], [ 99.342586334, 18.910410777 ], [ 99.337985168, 18.911667096 ], [ 99.336646011000099, 18.912251879000099 ], [ 99.3352187710001, 18.912504039000101 ], [ 99.332654882, 18.912619573 ], [ 99.331751779000101, 18.91270438 ], [ 99.330674235000103, 18.912983611000101 ], [ 99.327413242, 18.914237282 ], [ 99.325782969, 18.914988882 ], [ 99.32525945, 18.915488958 ], [ 99.325002142000102, 18.9161731290001 ], [ 99.324678188000107, 18.916266441000101 ], [ 99.324357664, 18.916267002 ], [ 99.323395674, 18.916046832000099 ], [ 99.321559387, 18.915744976 ], [ 99.320888676, 18.915468831000101 ], [ 99.320304805, 18.914887486000101 ], [ 99.319719937000102, 18.913779258 ], [ 99.319311221000106, 18.9133639950001 ], [ 99.318085494000101, 18.912340052 ], [ 99.317501482000097, 18.911675508 ], [ 99.317092097000099, 18.910899742 ], [ 99.316770805, 18.910484326000098 ], [ 99.316340081000106, 18.91030951 ], [ 99.316158452000096, 18.910235790000101 ], [ 99.315402259000095, 18.910225278 ], [ 99.314637334000096, 18.910214641 ], [ 99.314381025, 18.910211076000099 ], [ 99.312633411, 18.910546796000101 ], [ 99.310390557000105, 18.910938793000099 ], [ 99.309254452000104, 18.911079339 ], [ 99.307855858, 18.9110816630001 ], [ 99.3071564090001, 18.91099963 ], [ 99.305698279000097, 18.910308759 ], [ 99.304936289000096, 18.90977293 ], [ 99.304662046, 18.909580086000101 ], [ 99.304197881000107, 18.909368262 ], [ 99.303829354000101, 18.909206531000098 ], [ 99.303474477000094, 18.909039679 ], [ 99.303187777000105, 18.908747220000102 ], [ 99.302967657000096, 18.9082373110001 ], [ 99.302756255000105, 18.907929851000102 ], [ 99.302398261000107, 18.907455504 ], [ 99.301944305000106, 18.907192685 ], [ 99.301375244, 18.906930215 ], [ 99.3011640550001, 18.9067696880001 ], [ 99.300659834, 18.90652692 ], [ 99.300259497000098, 18.90645805 ], [ 99.299808464000094, 18.906349856000102 ], [ 99.299519469000103, 18.9061689010001 ], [ 99.299309250000107, 18.9059225990001 ], [ 99.29906284, 18.905690025000101 ], [ 99.298532575000095, 18.9055276190001 ], [ 99.298140545000095, 18.9054391190001 ], [ 99.297678686, 18.905413994000099 ], [ 99.297095855000094, 18.905251760000102 ], [ 99.296854958, 18.904891506000101 ], [ 99.296709123000099, 18.904384598 ], [ 99.296236720000095, 18.90411762 ], [ 99.295982453000093, 18.904124045000099 ], [ 99.295550091000095, 18.904175615 ], [ 99.29528809, 18.9041876000001 ], [ 99.294849101000096, 18.904120785 ], [ 99.294251545000094, 18.90412486 ], [ 99.294015035000101, 18.904052897 ], [ 99.293668971, 18.90381118 ], [ 99.293500234000106, 18.903615544 ], [ 99.293196228000099, 18.903336543 ], [ 99.292888888, 18.903102248 ], [ 99.292418308, 18.902899153000099 ], [ 99.29161931, 18.902734964 ], [ 99.291307632, 18.9027044370001 ], [ 99.29089715, 18.902745622000101 ], [ 99.290351851000096, 18.9026441130001 ], [ 99.2900103690001, 18.902542811 ], [ 99.289590108000098, 18.902484938 ], [ 99.288918493, 18.902522171 ], [ 99.288433106000099, 18.902759894 ], [ 99.288094832000098, 18.903125287 ], [ 99.287738202000099, 18.903417179 ], [ 99.287278570000097, 18.903380364 ], [ 99.287255591000104, 18.9029362160001 ], [ 99.287138395000099, 18.902624417 ], [ 99.286962648, 18.902222042000101 ], [ 99.286343048, 18.902112737 ], [ 99.285737795, 18.902298741 ], [ 99.285126636000101, 18.902273238000099 ], [ 99.284832034, 18.902189078 ], [ 99.284454289000095, 18.9022161020001 ], [ 99.284137391000101, 18.902084382000101 ], [ 99.283837343000101, 18.902058414000098 ], [ 99.283438162, 18.901986974000099 ], [ 99.283151737000097, 18.901963607 ], [ 99.282576936000098, 18.902087430000101 ], [ 99.281952236000095, 18.902278731 ], [ 99.281752496000095, 18.902429747 ], [ 99.281194367000097, 18.9025693940001 ], [ 99.280852854, 18.902665095 ], [ 99.280394376000103, 18.902714735000099 ], [ 99.280036404, 18.902813063000099 ], [ 99.2797659860001, 18.903063325000101 ], [ 99.279595490000105, 18.903273763000101 ], [ 99.279262767, 18.903643091 ], [ 99.278725911, 18.9034877080001 ], [ 99.278492738000097, 18.903155958000099 ], [ 99.278274720000098, 18.902809745000098 ], [ 99.278258968, 18.902463228 ], [ 99.278475701, 18.902029726 ], [ 99.278439881000097, 18.901774681000099 ], [ 99.278241064, 18.9013277940001 ], [ 99.277745737, 18.9009575010001 ], [ 99.277290587, 18.900938930000098 ], [ 99.277083532000105, 18.901102875 ], [ 99.276643954000093, 18.901339377000099 ], [ 99.276168670000104, 18.901373779 ], [ 99.27597624, 18.9012056010001 ], [ 99.2756923110001, 18.900758403000101 ], [ 99.275555422000096, 18.900537201000098 ], [ 99.275382850000099, 18.9001524130001 ], [ 99.275255623000106, 18.899661657 ], [ 99.275153884000105, 18.899286400000101 ], [ 99.275041968, 18.8988774470001 ], [ 99.275041309000102, 18.898473155 ], [ 99.274986580000103, 18.898103288000101 ], [ 99.274524489, 18.897853029 ], [ 99.274225966000103, 18.897742759 ], [ 99.273639577, 18.897873583 ], [ 99.273316094000094, 18.897955888000102 ], [ 99.2729380090001, 18.898168722 ], [ 99.272472203000106, 18.898332534000101 ], [ 99.271890889000105, 18.898468157 ], [ 99.271486450000097, 18.898531325 ], [ 99.271111477, 18.898577585000101 ], [ 99.270666539, 18.8986231690001 ], [ 99.270343593000106, 18.898523355000101 ], [ 99.270090426000095, 18.898321588 ], [ 99.269806539000101, 18.8978839970001 ], [ 99.269603790000104, 18.897585883 ], [ 99.269567504000094, 18.897032432000099 ], [ 99.269465872000097, 18.8967149210001 ], [ 99.269272983000107, 18.896262755000102 ], [ 99.269118221, 18.895925277000099 ], [ 99.268948985000094, 18.8955019590001 ], [ 99.268874327, 18.895200443 ], [ 99.268860045000096, 18.894699901 ], [ 99.268946709, 18.894077294000098 ], [ 99.268696459000097, 18.8935899260001 ], [ 99.268445667, 18.893428840000102 ], [ 99.268056339000097, 18.8932213900001 ], [ 99.267530430000093, 18.89321253 ], [ 99.266948892000102, 18.893198926 ], [ 99.266610068, 18.893184968000099 ], [ 99.266119230000101, 18.892969093 ], [ 99.265719344, 18.892709757 ], [ 99.265349784000094, 18.892435937000101 ], [ 99.265132148000106, 18.892306284 ], [ 99.26437301, 18.891903072 ], [ 99.263952770000103, 18.891557128 ], [ 99.263691569000102, 18.891406736 ], [ 99.26329322, 18.89132319 ], [ 99.262787464, 18.890992959000101 ], [ 99.262473718000095, 18.8910256990001 ], [ 99.262139475000097, 18.891050807000099 ], [ 99.261535602, 18.8910607810001 ], [ 99.261228920000093, 18.891097711 ], [ 99.260788338000097, 18.891326428000099 ], [ 99.260309230000104, 18.891436587 ], [ 99.259896938000097, 18.891364172000099 ], [ 99.259254033, 18.890927119 ], [ 99.258457145000094, 18.890088827000099 ], [ 99.258073401, 18.889879504000099 ], [ 99.257680316000105, 18.889825308000098 ], [ 99.257325669000096, 18.889834924000098 ], [ 99.256903919000095, 18.88984463 ], [ 99.256347524, 18.889553434 ], [ 99.255752002000094, 18.888751343 ], [ 99.255406222, 18.888286498000099 ], [ 99.254858423000101, 18.887338356 ], [ 99.254502580000107, 18.886554185 ], [ 99.254443950000095, 18.885815223000101 ], [ 99.254462513000107, 18.885413742 ], [ 99.254596279000097, 18.885130717 ], [ 99.254921652000107, 18.884783562000099 ], [ 99.255266429000102, 18.884591486 ], [ 99.255716601000103, 18.8843718910001 ], [ 99.256090156000099, 18.88419802 ], [ 99.256271485000099, 18.8836777080001 ], [ 99.2562607630001, 18.8829295580001 ], [ 99.256122626, 18.8824855710001 ], [ 99.255905226, 18.8823461100001 ], [ 99.255454593000096, 18.88225549 ], [ 99.254170157, 18.882229878 ], [ 99.253930473000096, 18.882193712000099 ], [ 99.253498766000106, 18.88193883 ], [ 99.253296875, 18.881537649000101 ], [ 99.252788525000099, 18.881310241000101 ], [ 99.252405031000094, 18.881246893 ], [ 99.252011567000096, 18.8809280880001 ], [ 99.251800237000097, 18.8806181570001 ], [ 99.251320064000097, 18.8799983810001 ], [ 99.251099193000101, 18.879715834 ], [ 99.250715536000101, 18.879542995000101 ], [ 99.250456716000102, 18.879525098 ], [ 99.250044646, 18.879580396000101 ], [ 99.249776027000095, 18.879416523 ], [ 99.249353604000106, 18.8789517700001 ], [ 99.249083504000097, 18.877784261 ], [ 99.248628819, 18.874938189 ], [ 99.248560531000095, 18.874126249 ], [ 99.248339104000095, 18.873460491000099 ], [ 99.248144433, 18.873113398 ], [ 99.247836994000096, 18.872589841 ], [ 99.2472680690001, 18.8723422640001 ], [ 99.246719546000094, 18.872317522000099 ], [ 99.24425912, 18.873072134 ], [ 99.243924829, 18.873180821000101 ], [ 99.243563626000096, 18.873181296 ], [ 99.243195554000096, 18.873054426000099 ], [ 99.242941178000095, 18.872921036 ], [ 99.242526007, 18.8726032050001 ], [ 99.241965397000101, 18.871975689000099 ], [ 99.241554282, 18.8714247670001 ], [ 99.2406510120001, 18.870805523000101 ], [ 99.239948598000097, 18.870408733 ], [ 99.238744660000094, 18.86986941 ], [ 99.23745727, 18.869393817000098 ], [ 99.235250628000102, 18.868792115000101 ], [ 99.234813787000107, 18.868762796000102 ], [ 99.234581192000107, 18.868610241000098 ], [ 99.234235798, 18.868228935 ], [ 99.234139107, 18.867900756 ], [ 99.234098580000094, 18.867595411 ], [ 99.234122151000093, 18.867244176 ], [ 99.234193858000097, 18.8669005140001 ], [ 99.234425604000094, 18.866304707 ], [ 99.234593441000101, 18.865884575000099 ], [ 99.234729463000093, 18.865655355000101 ], [ 99.235009627000096, 18.86527326 ], [ 99.235650330000098, 18.864638752000101 ], [ 99.236227036000102, 18.864118853 ], [ 99.236955905000102, 18.8634536910001 ], [ 99.237196185000101, 18.863231975000101 ], [ 99.237532783000105, 18.863063574 ], [ 99.238045811000106, 18.862894952 ], [ 99.238579073, 18.862723469000102 ], [ 99.239087807, 18.862488970000101 ], [ 99.239258618000093, 18.862242132000102 ], [ 99.239343359, 18.861725155 ], [ 99.239261860000099, 18.860809068 ], [ 99.238931214, 18.859511569000102 ], [ 99.238817267000101, 18.858328305 ], [ 99.238670864000099, 18.856877864000101 ], [ 99.238747632000099, 18.854457507000099 ], [ 99.238795278000097, 18.854121512000098 ], [ 99.238883004000101, 18.853777829 ], [ 99.239130306, 18.852861322 ], [ 99.239233353, 18.852013719000102 ], [ 99.239248679000099, 18.851509797000102 ], [ 99.239207910000104, 18.851036488 ], [ 99.238853705000096, 18.850074944 ], [ 99.238507702, 18.849243186 ], [ 99.2382579370001, 18.848411302 ], [ 99.238096931000101, 18.847968685000101 ], [ 99.237936088000097, 18.847640588 ], [ 99.237325503000093, 18.846832070000101 ], [ 99.237100555, 18.846534594 ], [ 99.236493069000105, 18.846035242 ], [ 99.236257482, 18.845764540000101 ], [ 99.236184967, 18.84536716 ], [ 99.236247037000098, 18.844031432000101 ], [ 99.236205628000107, 18.843092393000099 ], [ 99.2361805070001, 18.842328936000101 ], [ 99.2358977250001, 18.8408099490001 ], [ 99.235840825000096, 18.840260309 ], [ 99.235968497, 18.839809684 ], [ 99.235927090000104, 18.8388706480001 ], [ 99.236085396000107, 18.837389272000099 ], [ 99.236092602, 18.83680901 ], [ 99.235947639000102, 18.836358737000101 ], [ 99.235393469000101, 18.835718103 ], [ 99.234988656, 18.835420421 ], [ 99.234820859000095, 18.835171815 ], [ 99.234462739, 18.834889621000102 ], [ 99.234315235000096, 18.834636157 ], [ 99.23420301, 18.834208717 ], [ 99.233705579000102, 18.83408855 ], [ 99.233294513, 18.834045584 ], [ 99.233169567000104, 18.833591583 ], [ 99.232585820000097, 18.833428041 ], [ 99.232225433000096, 18.833339107 ], [ 99.231745842000095, 18.833276895 ], [ 99.231172182000094, 18.833069856000101 ], [ 99.230621494, 18.832964245 ], [ 99.2303733050001, 18.833288259 ], [ 99.230099665000097, 18.833556744000099 ], [ 99.229780149000106, 18.83366826 ], [ 99.229214486, 18.833746262 ], [ 99.228879422, 18.833621053000101 ], [ 99.2284277360001, 18.833556387 ], [ 99.227876587000097, 18.833107733000102 ], [ 99.227414598000095, 18.832924704 ], [ 99.227099815000102, 18.832787389 ], [ 99.226604715000093, 18.832507765000098 ], [ 99.22620606, 18.832257015 ], [ 99.225911289000095, 18.831904674 ], [ 99.225555938000099, 18.831777071 ], [ 99.225177738000099, 18.831644663000102 ], [ 99.224918590000101, 18.83136475 ], [ 99.224449228000097, 18.831358066000099 ], [ 99.224134436, 18.831208673 ], [ 99.223840043000095, 18.831134139 ], [ 99.223494953000099, 18.831093486 ], [ 99.223076305000106, 18.831067416000099 ], [ 99.22261438, 18.830925437000101 ], [ 99.222258952000104, 18.8307398480001 ], [ 99.221487196000098, 18.830359084000101 ], [ 99.221063515000097, 18.830362 ], [ 99.220725215000101, 18.830756127 ], [ 99.220058879000106, 18.83106077 ], [ 99.219049265000095, 18.831407765000101 ], [ 99.2184025130001, 18.831516588000099 ], [ 99.218062013000093, 18.831495371000099 ], [ 99.217721237, 18.8312580300001 ], [ 99.217539305000102, 18.830988086 ], [ 99.217516051000104, 18.830555852 ], [ 99.217606411000105, 18.830220753 ], [ 99.217934637, 18.829528756000101 ], [ 99.218024869, 18.829096395 ], [ 99.218567203000106, 18.827226251000099 ], [ 99.219279339000096, 18.8250425200001 ], [ 99.219697612000104, 18.823788483 ], [ 99.219821616, 18.82315076 ], [ 99.21968459, 18.822502536000101 ], [ 99.219490951000097, 18.822150299 ], [ 99.218864899, 18.821508672 ], [ 99.216822069, 18.819442968 ], [ 99.215751069000106, 18.8182221550001 ], [ 99.215075313000099, 18.817282892 ], [ 99.214581037000102, 18.816735102000099 ], [ 99.213675766000094, 18.816438464 ], [ 99.212836505, 18.816298414000102 ], [ 99.212046744000105, 18.816267980000099 ], [ 99.210894867, 18.816112611000101 ], [ 99.210384759000107, 18.8160505180001 ], [ 99.210022551000094, 18.81584725 ], [ 99.209956179000102, 18.815392971000101 ], [ 99.209848317000095, 18.8145796260001 ], [ 99.209616205, 18.814393938 ], [ 99.209054456, 18.814104021 ], [ 99.208455916, 18.813674681000101 ], [ 99.208028584, 18.813524072000099 ], [ 99.207270439000098, 18.8134537930001 ], [ 99.206824286000099, 18.8130489650001 ], [ 99.206617882, 18.812739801000099 ], [ 99.206308293000106, 18.812294923 ], [ 99.206117799000097, 18.812038563 ], [ 99.205800293, 18.811593693000098 ], [ 99.205657273, 18.8112769100001 ], [ 99.2055301460001, 18.810997841000098 ], [ 99.205379221, 18.810696161000099 ], [ 99.2050220120001, 18.810175868 ], [ 99.204720505000097, 18.809851714 ], [ 99.204442282000102, 18.8095801330001 ], [ 99.204118759, 18.809143903000098 ], [ 99.203805892, 18.808906107 ], [ 99.203357832000094, 18.80887683 ], [ 99.203097373, 18.808896957000101 ], [ 99.202659838, 18.8089569680001 ], [ 99.202295215, 18.808997052000102 ], [ 99.201732395000107, 18.80884883 ], [ 99.201263085000093, 18.808472281 ], [ 99.201023234, 18.808293937 ], [ 99.200731226000102, 18.808066039 ], [ 99.200345198, 18.807629867000099 ], [ 99.200000932000094, 18.807263107 ], [ 99.19965683, 18.807035261000099 ], [ 99.199406584000101, 18.80687677 ], [ 99.19906258, 18.806728301000099 ], [ 99.198708156000095, 18.806579839000101 ], [ 99.198364237000106, 18.806500827 ], [ 99.197676449000099, 18.806392411 ], [ 99.197280479000099, 18.806353142 ], [ 99.196001040000098, 18.806135963 ], [ 99.195790025000093, 18.806111068000099 ], [ 99.195359090000096, 18.805960823000099 ], [ 99.195073195000106, 18.8058020550001 ], [ 99.194782921000098, 18.8056558480001 ], [ 99.194338923, 18.805610261 ], [ 99.193899333, 18.805577234000101 ], [ 99.193481711000103, 18.8055399940001 ], [ 99.193033137, 18.805335344000099 ], [ 99.192809838000102, 18.805088065000099 ], [ 99.192379082000102, 18.80526716 ], [ 99.191953543000096, 18.805571789000101 ], [ 99.191710123000107, 18.805523754 ], [ 99.191253449, 18.805200721000102 ], [ 99.190908558, 18.80509002 ], [ 99.190472320000097, 18.8049021570001 ], [ 99.189914343000098, 18.804661304 ], [ 99.189442744000104, 18.804584528000099 ], [ 99.189148586, 18.8045027430001 ], [ 99.188823964000093, 18.804377532 ], [ 99.1885550370001, 18.80418467 ], [ 99.1880780380001, 18.803808531000101 ], [ 99.187783603000099, 18.8034756650001 ], [ 99.187443723000101, 18.803307013000101 ], [ 99.186850425, 18.803211043 ], [ 99.186302843000107, 18.8031922710001 ], [ 99.185861984, 18.803405163 ], [ 99.185502144000097, 18.803521404 ], [ 99.185040886000095, 18.803628089 ], [ 99.184559212000096, 18.8036092510001 ], [ 99.183956017000099, 18.803735383000099 ], [ 99.183651644000093, 18.803581178000101 ], [ 99.183190050000107, 18.803374009 ], [ 99.182708145, 18.803142715 ], [ 99.182160313000097, 18.8032822700001 ], [ 99.181787484, 18.803426637 ], [ 99.181374265, 18.803503844 ], [ 99.180960942000098, 18.803485044000102 ], [ 99.180364055, 18.8034235420001 ], [ 99.179929843000096, 18.8028485570001 ], [ 99.17978063, 18.802650967 ], [ 99.179480266, 18.801979251 ], [ 99.179185207, 18.802017927000101 ], [ 99.177865029, 18.802364797000099 ], [ 99.177213362, 18.802459455000101 ], [ 99.17673827, 18.802438359000099 ], [ 99.176148087000101, 18.802530621000098 ], [ 99.175647533000102, 18.802471853 ], [ 99.175212845, 18.8023951650001 ], [ 99.174332591000095, 18.802153029000099 ], [ 99.172622385000096, 18.802515255000099 ], [ 99.1718568900001, 18.802687821000099 ], [ 99.171472802, 18.802633115 ], [ 99.171003255000102, 18.802504571 ], [ 99.170798443000095, 18.80221665 ], [ 99.170465984, 18.80210334 ], [ 99.169993210000101, 18.802282313 ], [ 99.169648336000094, 18.802530151 ], [ 99.169426947, 18.802708898 ], [ 99.168920289000098, 18.803090793 ], [ 99.168446782, 18.803456535000102 ], [ 99.1678649, 18.803751561000102 ], [ 99.167414454, 18.803968526000101 ], [ 99.1672165210001, 18.8045042050001 ], [ 99.166778418, 18.804662095 ], [ 99.166230670000104, 18.804743306 ], [ 99.165877238000107, 18.80481646 ], [ 99.1655755150001, 18.804917134 ], [ 99.165015509000099, 18.805146008000101 ], [ 99.164602383, 18.805486963000099 ], [ 99.164755703000097, 18.805837261 ], [ 99.164877964000098, 18.806134435 ], [ 99.164526968000104, 18.806593466 ], [ 99.164202578000101, 18.806770933000099 ], [ 99.163907090000095, 18.806909006000101 ], [ 99.163570241000102, 18.807035303000099 ], [ 99.162985354000099, 18.8072011890001 ], [ 99.162863698000095, 18.8062979850001 ], [ 99.162846538000096, 18.805606921 ], [ 99.162818643, 18.805182877 ], [ 99.1627357240001, 18.804706523 ], [ 99.162614439, 18.804350615 ], [ 99.162482091000101, 18.803926661 ], [ 99.162161029000103, 18.803280269 ], [ 99.16189324, 18.802732998000099 ], [ 99.161778664000096, 18.802565236000099 ], [ 99.161552389000093, 18.801997060000101 ], [ 99.161381841, 18.801502458000101 ], [ 99.161291857, 18.801178593 ], [ 99.161177085000105, 18.800804682 ], [ 99.161077748000096, 18.800398367000099 ], [ 99.161006388, 18.800151054 ], [ 99.1609410760001, 18.799750598000099 ], [ 99.160875574, 18.79915872 ], [ 99.160692616000105, 18.798611119 ], [ 99.160639697000093, 18.798245996 ], [ 99.160599146, 18.797869075000101 ], [ 99.16050305, 18.7976217830001 ], [ 99.159958568, 18.797348372 ], [ 99.159479492000102, 18.7975755410001 ], [ 99.159108669, 18.797829125000099 ], [ 99.158638557000103, 18.79772645 ], [ 99.1583384340001, 18.79753234 ], [ 99.157914544000107, 18.797249981 ], [ 99.157515225000097, 18.796796799 ], [ 99.157381778000101, 18.79627271 ], [ 99.157219851, 18.796003479 ], [ 99.156935951, 18.795675264000099 ], [ 99.156703760000099, 18.795375077000099 ], [ 99.156579720000096, 18.794989391000101 ], [ 99.156440223000104, 18.794609609000101 ], [ 99.15630386, 18.794276946 ], [ 99.156009784, 18.793923799 ], [ 99.155712505000096, 18.793452858 ], [ 99.155566886000102, 18.793137870000098 ], [ 99.155458406, 18.792855246 ], [ 99.155244702000104, 18.7924755280001 ], [ 99.155083671000099, 18.792213557 ], [ 99.154832883, 18.791851539 ], [ 99.15469046, 18.791645511000102 ], [ 99.154427309000098, 18.791292335 ], [ 99.154154768000097, 18.7908125320001 ], [ 99.153913345, 18.7905476870001 ], [ 99.153656647, 18.790179143 ], [ 99.15322603, 18.789576420000099 ], [ 99.152919496, 18.789105482 ], [ 99.1526501580001, 18.788740527000101 ], [ 99.152405636000097, 18.788460960000101 ], [ 99.152089768000096, 18.7879222890001 ], [ 99.150320614000094, 18.788701168 ], [ 99.149461208, 18.789078406 ], [ 99.148883846, 18.789328436000101 ], [ 99.148036011, 18.789620562 ], [ 99.147454771000099, 18.789837533 ], [ 99.146257251000094, 18.790188217 ], [ 99.145868336, 18.790371723000099 ], [ 99.145383224000099, 18.790534480000101 ], [ 99.144902483000095, 18.790701405 ], [ 99.144155148, 18.790951798 ], [ 99.144085226000101, 18.790980999000102 ], [ 99.142791168000102, 18.791499442 ], [ 99.141326107000097, 18.792068695000101 ], [ 99.141428528000105, 18.792637004 ], [ 99.141159167000097, 18.793211665000101 ], [ 99.140017403000101, 18.793791557000102 ], [ 99.139417981000094, 18.794049913 ], [ 99.138693019000101, 18.794538648000099 ], [ 99.138277455, 18.794916612000101 ], [ 99.138336040000098, 18.795377130000102 ], [ 99.138455842, 18.7957307 ], [ 99.138071982, 18.796080585 ], [ 99.137607041000095, 18.796450848000099 ], [ 99.136898899000101, 18.796947306 ], [ 99.136019938000103, 18.797334132000099 ], [ 99.135430880000101, 18.797293908 ], [ 99.135106376000095, 18.797155932000098 ], [ 99.134743748000105, 18.797379771000099 ], [ 99.134354431000105, 18.797644650000102 ], [ 99.133772211000107, 18.797993916000099 ], [ 99.133362831000099, 18.7980591960001 ], [ 99.132874713, 18.798124535000099 ], [ 99.132381562, 18.798464826 ], [ 99.131858385, 18.798819441 ], [ 99.1314855090001, 18.799184069 ], [ 99.131155037, 18.799571976 ], [ 99.130755237000102, 18.799854269 ], [ 99.130295638000106, 18.800069815 ], [ 99.130007397, 18.8001838110001 ], [ 99.129597122000106, 18.800359739 ], [ 99.1291946260001, 18.800520814 ], [ 99.128781741000097, 18.800686844 ], [ 99.128391841000095, 18.800930794000099 ], [ 99.128127129000106, 18.801104523 ], [ 99.127699668, 18.801345473 ], [ 99.127213923000099, 18.8016211730001 ], [ 99.126728186, 18.801917697 ], [ 99.126334694, 18.8020915180001 ], [ 99.125749176000099, 18.802177529000101 ], [ 99.125236662000106, 18.802409279000099 ], [ 99.124641264, 18.802275461 ], [ 99.124351842000095, 18.80189384 ], [ 99.124237459000099, 18.801648633000099 ], [ 99.124098667000098, 18.801239143 ], [ 99.124013450000106, 18.801003172 ], [ 99.123799196, 18.800406295000101 ], [ 99.123716176000102, 18.799850987000099 ], [ 99.123766799000094, 18.799297905000099 ], [ 99.123717914000096, 18.798906869000099 ], [ 99.123761443, 18.798624528000101 ], [ 99.123834061000096, 18.79824498 ], [ 99.1238167610001, 18.797849296 ], [ 99.123680472, 18.797543933 ], [ 99.123558532000104, 18.797105253 ], [ 99.123562617000104, 18.796784369 ], [ 99.123212444, 18.796377337 ], [ 99.122914411000096, 18.796389875 ], [ 99.122547400000101, 18.796591691000099 ], [ 99.12212422, 18.7967688630001 ], [ 99.121611056000106, 18.7969591190001 ], [ 99.1210176740001, 18.797011956000102 ], [ 99.120651327000104, 18.797050432 ], [ 99.120365367, 18.797208351000101 ], [ 99.119966553, 18.797459548000099 ], [ 99.119504954, 18.797651035000101 ], [ 99.119203892000101, 18.797746827 ], [ 99.118862683, 18.797842638000098 ], [ 99.118354143, 18.797893948 ], [ 99.118114212000094, 18.797691221 ], [ 99.117694837, 18.797657499 ], [ 99.1172308310001, 18.797589809 ], [ 99.116766767000101, 18.797445643000099 ], [ 99.116400652, 18.797012502 ], [ 99.115996103, 18.796550317 ], [ 99.115713458000101, 18.796189614000099 ], [ 99.115559408000095, 18.795699464000101 ], [ 99.115428002, 18.795381345000099 ], [ 99.115085275000098, 18.795043192 ], [ 99.114842249, 18.794731757 ], [ 99.114629796, 18.7942742450001 ], [ 99.114396937, 18.793877598000101 ], [ 99.114194730000094, 18.793449292 ], [ 99.114328925000095, 18.792941755000101 ], [ 99.114646437, 18.792426617 ], [ 99.114740709, 18.791990826000099 ], [ 99.114625273000101, 18.79137259 ], [ 99.114441007, 18.79101243 ], [ 99.114310487000097, 18.7907617810001 ], [ 99.114039275, 18.79033108 ], [ 99.1138908060001, 18.789992806 ], [ 99.1137907560001, 18.789437851000098 ], [ 99.113920816000103, 18.789011776000098 ], [ 99.114107001, 18.788429867 ], [ 99.114132351000094, 18.788118266 ], [ 99.114188889, 18.787606811 ], [ 99.114435034000095, 18.787316391 ], [ 99.114461584000097, 18.7868802150001 ], [ 99.114625512, 18.786436435 ], [ 99.114642478000107, 18.786189108 ], [ 99.114315235, 18.785880866000099 ], [ 99.113790305000094, 18.785764189000101 ], [ 99.113421643, 18.785534982000101 ], [ 99.113143933000103, 18.785348261 ], [ 99.113083016000104, 18.784897027000099 ], [ 99.1131498270001, 18.784609813 ], [ 99.113159070000094, 18.7841205510001 ], [ 99.113216141000095, 18.783585675 ], [ 99.1128619, 18.783446102 ], [ 99.112560432000095, 18.783499467000102 ], [ 99.112153624000101, 18.783479959 ], [ 99.111922184, 18.783291686 ], [ 99.111639663000105, 18.7830502670001 ], [ 99.111377784000098, 18.782656893 ], [ 99.111166965000095, 18.782289316000099 ], [ 99.110946514, 18.781821460000099 ], [ 99.110577811, 18.781508679000101 ], [ 99.11032563, 18.7813052230001 ], [ 99.109993560000106, 18.780913406 ], [ 99.109803933000094, 18.780564925 ], [ 99.109487506000093, 18.780070255000101 ], [ 99.109330806000102, 18.779742434000099 ], [ 99.109048999, 18.779539883 ], [ 99.108739691, 18.779507944 ], [ 99.108113487000097, 18.779494433 ], [ 99.107857446000097, 18.779127655 ], [ 99.107615022000104, 18.778545928 ], [ 99.107655251, 18.777969676000101 ], [ 99.1076237380001, 18.777632834 ], [ 99.107582843, 18.777301958000098 ], [ 99.107579450000102, 18.776893557000101 ], [ 99.107532182000099, 18.776383823000099 ], [ 99.107441118000096, 18.776133231000099 ], [ 99.107174876, 18.775148273000099 ], [ 99.107116807000097, 18.77445665 ], [ 99.106934163000105, 18.773981672 ], [ 99.106770596, 18.773770682000102 ], [ 99.106440102000093, 18.773570904000099 ], [ 99.105979612000098, 18.773532030000101 ], [ 99.105716803000107, 18.773348435000099 ], [ 99.104654693, 18.772339156 ], [ 99.104223806, 18.77259897 ], [ 99.103724217, 18.7728426890001 ], [ 99.103249469, 18.7726607610001 ], [ 99.102977561, 18.772147964000101 ], [ 99.102596582, 18.772054311 ], [ 99.102049345000097, 18.771506218000098 ], [ 99.101687229, 18.771033967000101 ], [ 99.101345551000094, 18.770626798 ], [ 99.101097776000103, 18.770359461000101 ], [ 99.100724326, 18.769366566 ], [ 99.100549454, 18.768927036 ], [ 99.100215870000099, 18.768508508 ], [ 99.099693255, 18.768245713000098 ], [ 99.099212838000099, 18.768646071 ], [ 99.098678825, 18.7688531320001 ], [ 99.098327591, 18.7690084020001 ], [ 99.097927829000099, 18.769228992 ], [ 99.097722277000102, 18.769400508 ], [ 99.097339725, 18.769743525 ], [ 99.097048533000105, 18.770010316 ], [ 99.096934084000097, 18.770291531000101 ], [ 99.096662718000104, 18.77079445 ], [ 99.096686779, 18.771177699000098 ], [ 99.096472038000101, 18.771687195 ], [ 99.096076551000095, 18.771929659 ], [ 99.095901741, 18.772179273000098 ], [ 99.095694039000094, 18.7725124080001 ], [ 99.095635210000097, 18.7729562530001 ], [ 99.095884303, 18.773233728 ], [ 99.096291353000098, 18.773667274 ], [ 99.096564787, 18.7740372710001 ], [ 99.096389069000097, 18.774495583 ], [ 99.096310663000096, 18.774790593 ], [ 99.096217234000093, 18.775235202 ], [ 99.096303880000093, 18.7755788740001 ], [ 99.095959977000106, 18.7758209580001 ], [ 99.095771792000093, 18.7762658410001 ], [ 99.095435726000105, 18.776487943000099 ], [ 99.095186145000099, 18.776595869000101 ], [ 99.094324203, 18.776894332 ], [ 99.094300634, 18.777073826 ], [ 99.0944844240001, 18.777699377 ], [ 99.094448239000101, 18.7779537340001 ], [ 99.094185041000102, 18.778283438000098 ], [ 99.093993421000107, 18.778811729 ], [ 99.093604461, 18.77911529 ], [ 99.093574072000095, 18.779413307 ], [ 99.093817028, 18.780016277000101 ], [ 99.093691643000099, 18.780496664000101 ], [ 99.093356492000098, 18.7807713760001 ], [ 99.093197885000095, 18.7811748660001 ], [ 99.093115792, 18.7816567620001 ], [ 99.0927572370001, 18.782172412 ], [ 99.092569192, 18.782531097000099 ], [ 99.092234021000095, 18.782777794 ], [ 99.091687012000094, 18.78290693 ], [ 99.091334022000098, 18.782845473000101 ], [ 99.090945727000104, 18.782761616000101 ], [ 99.090498804, 18.7827136810001 ], [ 99.089959445, 18.782704489 ], [ 99.089674874000096, 18.7827109300001 ], [ 99.089221548000097, 18.782707994000098 ], [ 99.088761588000096, 18.782686149 ], [ 99.088182534000097, 18.782699033 ], [ 99.0878153230001, 18.782863089 ], [ 99.08742829, 18.7830838900001 ], [ 99.087107351, 18.783140771 ], [ 99.086617649000104, 18.783197725 ], [ 99.086015470000106, 18.783298857 ], [ 99.085485990000095, 18.7832045500001 ], [ 99.085118667000103, 18.783147987000099 ], [ 99.0846421560001, 18.783113539000102 ], [ 99.084102757, 18.783028686 ], [ 99.083573274000102, 18.782937524 ], [ 99.083182773, 18.782846299 ], [ 99.083169426, 18.782613085 ], [ 99.083242018000107, 18.782193883 ], [ 99.083288063000097, 18.781623408 ], [ 99.083231607000101, 18.781216869 ], [ 99.082983221000106, 18.780766288000098 ], [ 99.082896889, 18.7801643620001 ], [ 99.082939663, 18.779663224 ], [ 99.082962609, 18.7792251330001 ], [ 99.082773812000099, 18.7788218110001 ], [ 99.082714058000093, 18.778424725 ], [ 99.082710463000097, 18.777844819000101 ], [ 99.0829518030001, 18.777422387000101 ], [ 99.082964890000099, 18.777110368 ], [ 99.082983543000097, 18.776540840000099 ], [ 99.08296325, 18.776205299 ], [ 99.082726564, 18.7758938210001 ], [ 99.082263675, 18.776114532000101 ], [ 99.081876142000098, 18.776066762 ], [ 99.081614263000105, 18.775692977000102 ], [ 99.0813274180001, 18.775707488 ], [ 99.0809399890001, 18.77588981 ], [ 99.080649792, 18.776030516 ], [ 99.080249438000095, 18.776093152 ], [ 99.079959571000103, 18.776241225 ], [ 99.079507416000098, 18.776261143000099 ], [ 99.079031180000101, 18.776442166 ], [ 99.078759556000094, 18.7766709540001 ], [ 99.078289251000101, 18.776813985 ], [ 99.077826795000107, 18.776942397 ], [ 99.077443705000107, 18.777031321 ], [ 99.077157261000096, 18.777120208 ], [ 99.076694794, 18.777242043000101 ], [ 99.076324957000097, 18.777380825 ], [ 99.076127446, 18.777402511 ], [ 99.074983686000095, 18.7779639930001 ], [ 99.074009782000104, 18.778439085000102 ], [ 99.072967974000093, 18.77905445 ], [ 99.071733629000093, 18.7797454080001 ], [ 99.070691590000095, 18.780307363000102 ], [ 99.069521588, 18.780794587000099 ], [ 99.068938186000096, 18.781114810000101 ], [ 99.068443157, 18.781317092000101 ], [ 99.068283799000099, 18.780795043000101 ], [ 99.067877048000099, 18.780660453000099 ], [ 99.067364306000101, 18.7807953770001 ], [ 99.066975297000099, 18.780829199 ], [ 99.066568535, 18.780660925000099 ], [ 99.066002565000105, 18.780341118 ], [ 99.065105321, 18.779891727000098 ], [ 99.064994464000094, 18.779836205 ], [ 99.064074792, 18.779364937 ], [ 99.063561893, 18.779078794 ], [ 99.062942898000102, 18.778792685 ], [ 99.061934988000104, 18.778759334 ], [ 99.060255216000101, 18.77892831 ], [ 99.059830654000095, 18.778406333000099 ], [ 99.059329199, 18.778568186 ], [ 99.059003225000097, 18.778906495000101 ], [ 99.05849019, 18.778977863 ], [ 99.058225628000102, 18.778977947 ], [ 99.057438694, 18.778848968 ], [ 99.0568010100001, 18.778752245000099 ], [ 99.056353315000095, 18.778804066000099 ], [ 99.056034523000093, 18.7788881590001 ], [ 99.0557310680001, 18.7792153460001 ], [ 99.055558238000103, 18.779685455 ], [ 99.055446425000099, 18.7800392390001 ], [ 99.055339722, 18.780465709000101 ], [ 99.055288996000101, 18.780916393 ], [ 99.055543514000107, 18.781328221 ], [ 99.055533428, 18.781599598000099 ], [ 99.055701447, 18.781967834000099 ], [ 99.056032364, 18.782617087000101 ], [ 99.056561733000095, 18.783353507000101 ], [ 99.056617850000094, 18.783799313 ], [ 99.056511177000104, 18.784313014000102 ], [ 99.056038132000097, 18.784676602 ], [ 99.055849993, 18.785011025000099 ], [ 99.056104505000107, 18.785388927 ], [ 99.056140257, 18.785786283 ], [ 99.055845310000095, 18.786241884 ], [ 99.056043880000104, 18.78667311 ], [ 99.056074551000094, 18.787109241000099 ], [ 99.055886392, 18.787400046000101 ], [ 99.0558763330001, 18.787753806000101 ], [ 99.055968018, 18.788059065 ], [ 99.056141118000099, 18.788388534 ], [ 99.056237939000098, 18.788853717000102 ], [ 99.056176027, 18.789212851000102 ], [ 99.056121145000105, 18.789551558 ], [ 99.056075517000096, 18.7900313220001 ], [ 99.056421612000094, 18.790370427 ], [ 99.056665989000095, 18.790835559000101 ], [ 99.056686426000098, 18.791092391000099 ], [ 99.057024674, 18.791380166000099 ], [ 99.057388921, 18.791752364 ], [ 99.057229546000102, 18.7920774520001 ], [ 99.057059007000106, 18.792446336000101 ], [ 99.056948850000097, 18.792695044 ], [ 99.056716870000102, 18.793010090000099 ], [ 99.056606823, 18.793562723 ], [ 99.056809983000093, 18.793827901 ], [ 99.057001561, 18.794153878 ], [ 99.056810261000095, 18.794656801 ], [ 99.056543463000096, 18.794977391 ], [ 99.056549475000097, 18.795607349 ], [ 99.056706322000096, 18.796159901000099 ], [ 99.056712222, 18.796452774 ], [ 99.056660255000097, 18.797215370000099 ], [ 99.057043349000097, 18.797629707000102 ], [ 99.056852033, 18.79812157 ], [ 99.056412567000095, 18.798327325000098 ], [ 99.056003055000104, 18.798675769000099 ], [ 99.055906605000104, 18.799004620000101 ], [ 99.056015041000094, 18.799528467000101 ], [ 99.055924434000104, 18.799812728000099 ], [ 99.055927486000101, 18.8002112140001 ], [ 99.056226024000097, 18.800475845000101 ], [ 99.056223242, 18.800921702 ], [ 99.055687905000099, 18.801264623000101 ], [ 99.055126123, 18.8013177290001 ], [ 99.054880467, 18.801688424000101 ], [ 99.054690409, 18.802098106000098 ], [ 99.054246879000104, 18.8024703940001 ], [ 99.054247058, 18.8030282440001 ], [ 99.054511755000107, 18.803532028000099 ], [ 99.054870795000099, 18.803585913000099 ], [ 99.055078724000097, 18.803837781 ], [ 99.055211138000104, 18.804287615000099 ], [ 99.055286878000103, 18.804755471000099 ], [ 99.055570338000095, 18.804827363000101 ], [ 99.056005045000106, 18.805169136000099 ], [ 99.056118623, 18.805762945 ], [ 99.055873031, 18.8059429740001 ], [ 99.0549851910001, 18.806735013 ], [ 99.054531691000093, 18.806753142 ], [ 99.054229480000103, 18.807113130000101 ], [ 99.054002884000099, 18.807617057000101 ], [ 99.054097498, 18.808048914 ], [ 99.054097613000096, 18.808408813 ], [ 99.053908836000105, 18.808966718 ], [ 99.053852481, 18.810028446 ], [ 99.053965938, 18.810280344 ], [ 99.054041660000095, 18.810694210000101 ], [ 99.053985145000098, 18.811252067000101 ], [ 99.053928576, 18.811611992000099 ], [ 99.053909816, 18.8120438730001 ], [ 99.053834464, 18.812799687000101 ], [ 99.053967619, 18.815552895000099 ], [ 99.053948960000099, 18.816272699 ], [ 99.053589992000099, 18.816524742000102 ], [ 99.053249812, 18.8163988740001 ], [ 99.052871858000103, 18.816344992 ], [ 99.0523806530001, 18.816741024000098 ], [ 99.051889428, 18.817047080000101 ], [ 99.051284911, 18.817677073 ], [ 99.051171624000105, 18.8181390680001 ], [ 99.051159141000099, 18.81851476 ], [ 99.051199757000106, 18.8191022990001 ], [ 99.0514643100001, 18.819563836 ], [ 99.051721951, 18.8198455 ], [ 99.051944456000101, 18.82004127 ], [ 99.052280042000106, 18.8203057260001 ], [ 99.052902307000096, 18.820360670000099 ], [ 99.053355004000096, 18.820264082000101 ], [ 99.053797455000094, 18.820431279 ], [ 99.05403118, 18.820828859000098 ], [ 99.054074722000095, 18.8212284630001 ], [ 99.054411787, 18.821543337 ], [ 99.054519365, 18.821795281 ], [ 99.054937001, 18.8219093340001 ], [ 99.055164556000094, 18.8223895890001 ], [ 99.055636034000102, 18.8228067850001 ], [ 99.055985553000099, 18.823235829000101 ], [ 99.056411411000099, 18.823227821 ], [ 99.056717360000107, 18.823182456 ], [ 99.057064751, 18.823442198000102 ], [ 99.057362623000103, 18.823979518 ], [ 99.057730653000107, 18.824115235 ], [ 99.058077984000093, 18.824191904 ], [ 99.058359234000093, 18.824463475000101 ], [ 99.058710788, 18.824788178000102 ], [ 99.059045844000096, 18.825205402000101 ], [ 99.059209235000097, 18.825419920000101 ], [ 99.059327198000105, 18.825782102000101 ], [ 99.059449363000098, 18.826321444 ], [ 99.059741008000103, 18.826750497 ], [ 99.059999555, 18.827110655000102 ], [ 99.060231189, 18.82735862 ], [ 99.060384705, 18.827883194 ], [ 99.060602635000095, 18.8283634470001 ], [ 99.060938955, 18.828442080000102 ], [ 99.061363419, 18.8283369500001 ], [ 99.0617366970001, 18.827961571000099 ], [ 99.062217328, 18.827878736000098 ], [ 99.062668541000093, 18.8279169680001 ], [ 99.063051609000098, 18.828142733 ], [ 99.063282697, 18.828318344 ], [ 99.063609945000096, 18.828547076000099 ], [ 99.063647272000097, 18.828849732 ], [ 99.063783868000101, 18.829255694 ], [ 99.063971564, 18.829469713 ], [ 99.064292633, 18.829753069 ], [ 99.064792014, 18.830039326000101 ], [ 99.065103735, 18.830203098 ], [ 99.065575118000098, 18.830248706000098 ], [ 99.066092982, 18.830195370000101 ], [ 99.066669746000102, 18.830108054 ], [ 99.067193777000099, 18.829986798 ], [ 99.067475943, 18.829905497 ], [ 99.067936492000101, 18.830004247 ], [ 99.068255998, 18.830235933 ], [ 99.068382809000099, 18.8304853120001 ], [ 99.068569293000095, 18.830931388000099 ], [ 99.068695050000102, 18.831328867 ], [ 99.068825538000098, 18.831928981 ], [ 99.068904822, 18.832436099000098 ], [ 99.068987594000106, 18.832935465 ], [ 99.069024935000101, 18.8332454980001 ], [ 99.068984407000102, 18.833668503000101 ], [ 99.069049742000104, 18.8341855940001 ], [ 99.0694835890001, 18.834362601000102 ], [ 99.069745306000101, 18.834507563 ], [ 99.070039601000104, 18.834675765 ], [ 99.070522354, 18.8349967 ], [ 99.070773648000099, 18.8352379990001 ], [ 99.071222674000097, 18.835554522000098 ], [ 99.071594697000094, 18.836042738000099 ], [ 99.071810152000097, 18.836603851000099 ], [ 99.071972494000093, 18.836859160000099 ], [ 99.072218127, 18.837139194 ], [ 99.072134405, 18.83764079 ], [ 99.072229414, 18.838003257 ], [ 99.0723559, 18.838546969 ], [ 99.072634033, 18.838817802000101 ], [ 99.072838225000098, 18.839023888 ], [ 99.073107211, 18.839316527000101 ], [ 99.073240867, 18.8397786630001 ], [ 99.0731042930001, 18.840132478 ], [ 99.072957984000098, 18.840451051000102 ], [ 99.072917838000095, 18.840875581 ], [ 99.073241935000098, 18.841304416000099 ], [ 99.073312782000102, 18.8417547180001 ], [ 99.073661367000099, 18.842249597 ], [ 99.07406002, 18.842509194000101 ], [ 99.074474868, 18.8425697700001 ], [ 99.075040965000099, 18.842810195 ], [ 99.075075260000105, 18.8432221 ], [ 99.075114246000098, 18.8437166850001 ], [ 99.0751609040001, 18.844028189 ], [ 99.075196958, 18.844572931000101 ], [ 99.075716095000104, 18.844859277000101 ], [ 99.076444367000093, 18.845298841 ], [ 99.076957573000101, 18.845613046 ], [ 99.078050208, 18.846294357 ], [ 99.07915194, 18.846902289000099 ], [ 99.080287319, 18.847510205 ], [ 99.081254481000101, 18.847998106 ], [ 99.082384049, 18.848535215 ], [ 99.082431887, 18.848557961 ], [ 99.083314929, 18.8489418200001 ], [ 99.084904448, 18.849701603 ], [ 99.088159237000099, 18.8512611250001 ], [ 99.089431642000093, 18.851827892000099 ], [ 99.090026318000099, 18.852092780000099 ], [ 99.093153396, 18.853495864 ], [ 99.093768941000107, 18.85377204 ], [ 99.095106221, 18.8543797620001 ], [ 99.096961486000097, 18.855168448 ], [ 99.099000014000097, 18.856035009 ], [ 99.102161428, 18.8573968540001 ], [ 99.102215070000099, 18.857728701 ], [ 99.102132981000096, 18.858054475000099 ], [ 99.101916784000096, 18.858635959 ], [ 99.101878080000105, 18.859085403000101 ], [ 99.101947696000096, 18.859621375000099 ], [ 99.101910511000099, 18.859892765 ], [ 99.101783515000093, 18.860277049 ], [ 99.101571554, 18.860693605000101 ], [ 99.101482974000106, 18.86112102 ], [ 99.101446364000097, 18.861378116 ], [ 99.101485696000097, 18.86195946 ], [ 99.101633220000096, 18.862417051 ], [ 99.101841496000105, 18.863051903 ], [ 99.102000449000101, 18.863449437 ], [ 99.102088920000099, 18.863971227 ], [ 99.101859559, 18.8642805920001 ], [ 99.101690968000099, 18.864808449000101 ], [ 99.101500596000093, 18.865134280000099 ], [ 99.10134487, 18.865455971000099 ], [ 99.101293171000094, 18.865909548 ], [ 99.101455904, 18.866490694 ], [ 99.101575407, 18.867092741 ], [ 99.101567104000097, 18.867698847 ], [ 99.101493823000098, 18.868276127000101 ], [ 99.1015347270001, 18.868723779 ], [ 99.1016329240001, 18.86910893 ], [ 99.101979538000094, 18.869302528 ], [ 99.102180325000106, 18.869515101 ], [ 99.102406058, 18.869944263 ], [ 99.102678146000102, 18.870259768 ], [ 99.102996733000097, 18.870698351 ], [ 99.103328471000097, 18.8709506910001 ], [ 99.103673532000101, 18.871300872000099 ], [ 99.103892562000098, 18.871594311 ], [ 99.104065153000107, 18.871865674 ], [ 99.104347221000097, 18.872225365000102 ], [ 99.104668826000093, 18.872462803000101 ], [ 99.1049283, 18.872625390000099 ], [ 99.105151304000103, 18.873078397 ], [ 99.105102207000101, 18.873597325 ], [ 99.104821486, 18.874086808000101 ], [ 99.104950240000093, 18.874480618000099 ], [ 99.105358651000103, 18.8749508880001 ], [ 99.105819250000096, 18.875316278000099 ], [ 99.106210545000096, 18.875510978 ], [ 99.106726179000106, 18.875806432 ], [ 99.107250254000107, 18.876053481 ], [ 99.107634549000096, 18.876336905000102 ], [ 99.10808804, 18.876612222000102 ], [ 99.108431243, 18.876681926000099 ], [ 99.108750416000106, 18.876711315 ], [ 99.109184075000101, 18.876891198000099 ], [ 99.109393212, 18.877092722 ], [ 99.109756398000101, 18.877482354000101 ], [ 99.110205617000105, 18.877699867 ], [ 99.110749503000093, 18.877984533000099 ], [ 99.1113596040001, 18.87803122 ], [ 99.111666195000097, 18.878247469 ], [ 99.112078635, 18.878368210000101 ], [ 99.112623874000107, 18.878560113 ], [ 99.112982690000095, 18.878733308000101 ], [ 99.113330190000099, 18.878878284000098 ], [ 99.113724281, 18.879003064000099 ], [ 99.114224218000103, 18.8790185350001 ], [ 99.114797694000103, 18.879201358 ], [ 99.115290827000095, 18.879593591000098 ], [ 99.115512645000095, 18.879748045 ], [ 99.115862985, 18.879901077000099 ], [ 99.116403940000097, 18.880015008 ], [ 99.116750038000106, 18.880164005 ], [ 99.117172450000098, 18.880396304 ], [ 99.117680984000103, 18.880586873 ], [ 99.118093305000102, 18.880519398 ], [ 99.118433613, 18.8804667540001 ], [ 99.118824771, 18.880430209000099 ], [ 99.119440531000095, 18.880474177000099 ], [ 99.119680902000098, 18.880950701000099 ], [ 99.119810678000107, 18.881357437000101 ], [ 99.119821207000101, 18.881644018 ], [ 99.119857331, 18.882176338 ], [ 99.119722550000105, 18.882546947 ], [ 99.119524374, 18.883142177 ], [ 99.119417356, 18.88345681 ], [ 99.119011552000103, 18.883637039000099 ], [ 99.118777383000094, 18.883888996000099 ], [ 99.119057355000095, 18.884296258000099 ], [ 99.119622012, 18.884410481 ], [ 99.119983336000104, 18.884443317 ], [ 99.120340535000096, 18.884481384 ], [ 99.120742763000095, 18.884424678000101 ], [ 99.121228996000099, 18.884515101 ], [ 99.121583917000095, 18.884639889 ], [ 99.122128469000103, 18.884818995 ], [ 99.122489855000097, 18.885089972000099 ], [ 99.122745423000097, 18.885509225000099 ], [ 99.122879128000093, 18.885848907 ], [ 99.122950318000093, 18.886153343 ], [ 99.122920967000098, 18.886571775 ], [ 99.122918137000099, 18.887045642 ], [ 99.123272115000105, 18.887330735 ], [ 99.12346719, 18.8875745980001 ], [ 99.123520481000099, 18.888022213000099 ], [ 99.123253766000104, 18.888307717 ], [ 99.1231215560001, 18.888570949 ], [ 99.123003196000099, 18.888945078000098 ], [ 99.122854134000093, 18.889339395 ], [ 99.122908505000098, 18.88981927 ], [ 99.1229320260001, 18.890114668 ], [ 99.12319182, 18.890507702 ], [ 99.123341410000094, 18.890832249 ], [ 99.123560931, 18.891185991 ], [ 99.12356943, 18.8916972980001 ], [ 99.123366850000096, 18.8920617630001 ], [ 99.123442763000099, 18.892365982000101 ], [ 99.123509558000094, 18.892991163 ], [ 99.123082288, 18.893394572 ], [ 99.122723182000101, 18.893401835000098 ], [ 99.122373903, 18.893402065 ], [ 99.121754082000095, 18.893432908 ], [ 99.121267108, 18.893491759 ], [ 99.120868434, 18.893509705 ], [ 99.1204775, 18.8934313980001 ], [ 99.120205777000095, 18.892985859000099 ], [ 99.11991369, 18.892668527000101 ], [ 99.119401956, 18.8925002880001 ], [ 99.118916095, 18.892700993000101 ], [ 99.1184888370001, 18.89277694 ], [ 99.117877744000097, 18.892871917 ], [ 99.117402713, 18.8929678750001 ], [ 99.116943818, 18.8931704620001 ], [ 99.116531688000094, 18.893572725000102 ], [ 99.116323178000101, 18.893832976000098 ], [ 99.116134624, 18.8942114480001 ], [ 99.11619446, 18.894518825 ], [ 99.116229628, 18.8950721480001 ], [ 99.116210047, 18.895427667 ], [ 99.116066283000094, 18.895985039 ], [ 99.115808149, 18.896344637 ], [ 99.115440462, 18.896363783 ], [ 99.1150216220001, 18.896680635000099 ], [ 99.115226059000094, 18.8970126520001 ], [ 99.115608215000094, 18.8973872010001 ], [ 99.115932407000102, 18.897561148 ], [ 99.11635585, 18.897758643 ], [ 99.116722063000097, 18.897793096 ], [ 99.117298974000093, 18.8979383500001 ], [ 99.117563736000093, 18.898123152 ], [ 99.11774402, 18.898719279 ], [ 99.117496120000098, 18.89899296 ], [ 99.117301922000095, 18.899203635 ], [ 99.1170024, 18.8995698320001 ], [ 99.116930226000093, 18.8998374990001 ], [ 99.116907743000098, 18.900213357 ], [ 99.117058198000095, 18.900651833 ], [ 99.117219417000101, 18.900935188000101 ], [ 99.117495949, 18.9013393010001 ], [ 99.117641865000095, 18.901569435000098 ], [ 99.117806514000094, 18.901976663 ], [ 99.118084249, 18.902227381 ], [ 99.118528933000107, 18.902103166000099 ], [ 99.118775598000099, 18.901914063 ], [ 99.119240923000106, 18.902113 ], [ 99.119573920000093, 18.902144161 ], [ 99.120116743, 18.901974205 ], [ 99.120599077000094, 18.902102287 ], [ 99.121210074, 18.902180112000099 ], [ 99.121549802000104, 18.902382077 ], [ 99.121502123000099, 18.902919313 ], [ 99.121514701000095, 18.903164297 ], [ 99.121897937000099, 18.903574694 ], [ 99.122121287000098, 18.903924693 ], [ 99.122364004000104, 18.904100323 ], [ 99.1226370790001, 18.904331031 ], [ 99.123009501000098, 18.904700726 ], [ 99.123244072, 18.905044277000101 ], [ 99.123293877, 18.905293497000098 ], [ 99.1233328900001, 18.905870685 ], [ 99.123153954, 18.9062092630001 ], [ 99.123298692, 18.906619547 ], [ 99.123628503000106, 18.906746812000101 ], [ 99.124257072, 18.906804115000099 ], [ 99.124640431, 18.907037369 ], [ 99.124766713, 18.907424471000098 ], [ 99.124839476, 18.907795484000101 ], [ 99.124850950000095, 18.908401560000101 ], [ 99.124625239000096, 18.9088608550001 ], [ 99.124281029000102, 18.9093805850001 ], [ 99.124135283, 18.909868691 ], [ 99.124121692000102, 18.910128450000101 ], [ 99.124317704000106, 18.910511379000098 ], [ 99.124579902000093, 18.9109231260001 ], [ 99.124764909000106, 18.911329678000101 ], [ 99.124972076000105, 18.911880515000099 ], [ 99.1253113020001, 18.9120665740001 ], [ 99.125620169000101, 18.912205420000099 ], [ 99.126201792000103, 18.912126315 ], [ 99.126474972, 18.912464590000098 ], [ 99.126756522000093, 18.912939287 ], [ 99.127060595, 18.9134161590001 ], [ 99.127075533, 18.913730993000101 ], [ 99.127105238000098, 18.914126279000101 ], [ 99.127193869000095, 18.914671950000098 ], [ 99.127403962000102, 18.915430931000099 ], [ 99.127510881, 18.91585415 ], [ 99.127526152000101, 18.91644402 ], [ 99.12728796, 18.917575456000101 ], [ 99.127167069000095, 18.91812127 ], [ 99.127027756000103, 18.9186076280001 ], [ 99.126984051000093, 18.9191498920001 ], [ 99.127223432000093, 18.919737438 ], [ 99.127304583000097, 18.920111699000099 ], [ 99.127013573000099, 18.920651994 ], [ 99.127157697000101, 18.921118329 ], [ 99.127282410000106, 18.921416787000101 ], [ 99.127471853, 18.921746250000101 ], [ 99.127565664000102, 18.922155686000099 ], [ 99.127570451000096, 18.922498701000102 ], [ 99.127511980000094, 18.922958960000098 ], [ 99.127426198000094, 18.923300037 ], [ 99.127263981000098, 18.923875076000101 ], [ 99.127132063, 18.924400746000099 ], [ 99.127098471000096, 18.924549106 ], [ 99.126420518, 18.925727599 ], [ 99.125433726, 18.927210777 ], [ 99.124560344000102, 18.927934543 ], [ 99.122547581, 18.929382233000101 ], [ 99.121332617000107, 18.930684750000101 ], [ 99.120915324000094, 18.931625150000102 ], [ 99.120688173000104, 18.932782377 ], [ 99.120691362000102, 18.934544308000099 ], [ 99.120136061, 18.936043536000099 ], [ 99.119722580000101, 18.936586415 ], [ 99.119486404, 18.936829605000099 ], [ 99.118127288, 18.9378414 ], [ 99.118047241000099, 18.937857493 ], [ 99.117164524, 18.938034913 ], [ 99.113718389, 18.938085283000099 ], [ 99.111285926000093, 18.938279654 ], [ 99.109411057, 18.938666567 ], [ 99.1050027510001, 18.93992296 ], [ 99.103584346, 18.940936476 ], [ 99.10239727, 18.943470668 ], [ 99.102319, 18.943637765000101 ], [ 99.099061316000103, 18.947910118 ], [ 99.098714062000099, 18.948221146 ], [ 99.098226757000106, 18.948518968 ], [ 99.097831296, 18.948597940000099 ], [ 99.0972793910001, 18.948528216000099 ], [ 99.096948221, 18.948440872 ], [ 99.096617054, 18.948353528 ], [ 99.096046661000102, 18.9481175240001 ], [ 99.095733841000097, 18.947951406000101 ], [ 99.095430236000098, 18.947811531000099 ], [ 99.094942679, 18.947671755 ], [ 99.094354031000094, 18.9476808040001 ], [ 99.093949386000105, 18.94777728 ], [ 99.0937195220001, 18.947917427 ], [ 99.093425339000106, 18.948180125 ], [ 99.093075964, 18.948425355 ], [ 99.092754185, 18.948688066 ], [ 99.092285315000098, 18.949073380000101 ], [ 99.091880846, 18.949502416 ], [ 99.091632641, 18.9497563420001 ], [ 99.091434615000097, 18.949992124000101 ], [ 99.091073530000102, 18.950488943 ], [ 99.090805697000107, 18.950766899 ], [ 99.090505636, 18.950832569000099 ], [ 99.090081761000107, 18.95081673 ], [ 99.089637715, 18.950683742 ], [ 99.089373673000097, 18.950573498 ], [ 99.089073806, 18.950370430000099 ], [ 99.088601454000099, 18.950079119000101 ], [ 99.088153511000101, 18.950132614 ], [ 99.087641132, 18.950414658000099 ], [ 99.08736529, 18.950589823 ], [ 99.087089437, 18.950756232000099 ], [ 99.086689402, 18.950855971000099 ], [ 99.086454817000103, 18.950817797000099 ], [ 99.085993470000105, 18.950744344 ], [ 99.085380670000106, 18.950873602000101 ], [ 99.0852203110001, 18.951280746000101 ], [ 99.084808660000107, 18.951873445 ], [ 99.084495652, 18.952479757 ], [ 99.08429741, 18.952774023000099 ], [ 99.084116657, 18.953161486000099 ], [ 99.08390875, 18.953514526 ], [ 99.083718943000093, 18.9538933790001 ], [ 99.083583371, 18.954168910000099 ], [ 99.083429721000101, 18.954487490000101 ], [ 99.083221888000097, 18.955004086 ], [ 99.083014086, 18.9555809390001 ], [ 99.082806267000095, 18.956131971 ], [ 99.082734059000103, 18.956484945000099 ], [ 99.082689038000098, 18.9569239950001 ], [ 99.082671130000094, 18.957302773 ], [ 99.082653220000097, 18.957681547 ], [ 99.082635284, 18.9580000670001 ], [ 99.082603676000105, 18.958374613 ], [ 99.082541343000102, 18.958737483 ], [ 99.082472839, 18.959284743000101 ], [ 99.082316717000097, 18.95962981 ], [ 99.082031219, 18.959986866000101 ], [ 99.081596796, 18.960185499 ], [ 99.080492114, 18.960690599 ], [ 99.07947176, 18.961691731 ], [ 99.078977222, 18.9625749090001 ], [ 99.078822813, 18.963134184000101 ], [ 99.078885081000095, 18.963987693 ], [ 99.078854340000106, 18.964399753000102 ], [ 99.078606970000095, 18.964635318 ], [ 99.078235793, 18.964723769 ], [ 99.077802686, 18.96469452 ], [ 99.077400437000094, 18.964488665 ], [ 99.076688735000104, 18.964047477000101 ], [ 99.07492526, 18.963636146000098 ], [ 99.073532934000099, 18.963048064000098 ], [ 99.072913351000096, 18.963048309 ], [ 99.072703098, 18.963137315 ], [ 99.072321826000106, 18.963351598 ], [ 99.072078095000094, 18.9635658280001 ], [ 99.071727111000101, 18.963909904 ], [ 99.071275192000101, 18.9641968 ], [ 99.070936505000105, 18.964253799000101 ], [ 99.070465103000103, 18.964173481 ], [ 99.070026946, 18.964007809000101 ], [ 99.069759255000093, 18.963903054000099 ], [ 99.069264314000094, 18.963932671000101 ], [ 99.068833258, 18.964235113 ], [ 99.06867672, 18.9643449430001 ], [ 99.067872648, 18.9649338830001 ], [ 99.066350207000099, 18.965575213 ], [ 99.065858747, 18.965785208000099 ], [ 99.064408488000097, 18.966406726000098 ], [ 99.063542551000097, 18.9670839630001 ], [ 99.062491078000093, 18.967967287 ], [ 99.061408864, 18.969409824 ], [ 99.061007026000098, 18.9703223540001 ], [ 99.0608836870001, 18.971440817 ], [ 99.0609250320001, 18.972508215000101 ], [ 99.061171196, 18.97249558 ], [ 99.06157835, 18.972521266000101 ], [ 99.062168767000102, 18.972688918000099 ], [ 99.062501348000097, 18.972914757000101 ], [ 99.062888277000098, 18.973289058 ], [ 99.063091918000097, 18.973482663 ], [ 99.063322752, 18.973786003 ], [ 99.063748697000094, 18.974230074 ], [ 99.064137213, 18.974542597 ], [ 99.064515764000106, 18.974826703000101 ], [ 99.064914185000106, 18.974987633000101 ], [ 99.065392221000096, 18.975006412 ], [ 99.065768594000104, 18.974997328 ], [ 99.066378096000093, 18.974854468 ], [ 99.066716677, 18.974797498 ], [ 99.067124984, 18.974768928000099 ], [ 99.067354059000095, 18.974816221 ], [ 99.067744233, 18.97493796 ], [ 99.067981554000099, 18.975014956000098 ], [ 99.068439758000096, 18.975242175000101 ], [ 99.068748558, 18.975412604 ], [ 99.068988561000097, 18.975575563000099 ], [ 99.0693263470001, 18.975829266000101 ], [ 99.069545529, 18.976028152 ], [ 99.069804648000101, 18.976463885 ], [ 99.06997411, 18.976852276 ], [ 99.070103829000104, 18.977449126000099 ], [ 99.070133921, 18.977956718 ], [ 99.070076207000099, 18.978378949 ], [ 99.069945203, 18.979222496 ], [ 99.069715739000102, 18.980191045 ], [ 99.069387803, 18.981284589 ], [ 99.069092546, 18.982003236 ], [ 99.068633165000094, 18.982909382000098 ], [ 99.068272159000102, 18.983471851 ], [ 99.068157618, 18.9835911280001 ], [ 99.067221731000103, 18.984565658000101 ], [ 99.0668075600001, 18.984924115000101 ], [ 99.066138391, 18.98550327 ], [ 99.065449030000096, 18.986222047000101 ], [ 99.064923869, 18.986940764000099 ], [ 99.0644644650001, 18.987878147000099 ], [ 99.064169212000095, 18.988690503 ], [ 99.063907035000099, 18.990127668000099 ], [ 99.063973052000094, 18.991002382 ], [ 99.064104714000095, 18.991783351 ], [ 99.064367754, 18.992595517 ], [ 99.064729252000106, 18.993220204000099 ], [ 99.065419291000097, 18.994157183 ], [ 99.065715076000103, 18.994688168 ], [ 99.066175167, 18.995469017000101 ], [ 99.066569493, 18.996031207 ], [ 99.067031829000101, 18.996372195 ], [ 99.067317747000104, 18.996535237 ], [ 99.067880001, 18.9967253720001 ], [ 99.068404114, 18.996852071 ], [ 99.068775732000105, 18.996879124 ], [ 99.069366504000101, 18.996897034 ], [ 99.069766696, 18.996887816 ], [ 99.070357420000093, 18.996787892 ], [ 99.070767103, 18.996697099000102 ], [ 99.071281558000095, 18.9965065590001 ], [ 99.071662617000101, 18.996325139000099 ], [ 99.072224677000094, 18.996053008 ], [ 99.072634300000104, 18.995826256 ], [ 99.073062922000105, 18.995472596000099 ], [ 99.073358190000107, 18.995218696000101 ], [ 99.073653482000097, 18.995019172000099 ], [ 99.074101206000094, 18.99478334 ], [ 99.074453713000096, 18.9946834940001 ], [ 99.074777646000101, 18.994619919000101 ], [ 99.075263567, 18.994565337 ], [ 99.075730462000095, 18.994583272000099 ], [ 99.076245021, 18.994655575 ], [ 99.076549979, 18.994764213000099 ], [ 99.076940703, 18.994900009 ], [ 99.077312369000097, 18.9950358090001 ], [ 99.077553177000098, 18.995143635 ], [ 99.078141508, 18.995407076 ], [ 99.078760912000106, 18.9956723130001 ], [ 99.0788181570001, 18.995696827000099 ], [ 99.080330595000106, 18.996331005000101 ], [ 99.080524081000107, 18.996412134 ], [ 99.081286511000101, 18.996729034000101 ], [ 99.081667735000096, 18.996910137 ], [ 99.082194312000098, 18.997166404 ], [ 99.082651360000099, 18.997341363 ], [ 99.083094575000104, 18.997619877 ], [ 99.083387732000105, 18.997939241 ], [ 99.083616598, 18.998299425 ], [ 99.083795406, 18.998598447000099 ], [ 99.083881403000106, 18.9990742590001 ], [ 99.083874562000105, 18.999686064000102 ], [ 99.083717547, 19.000094005000101 ], [ 99.083481898000102, 19.000461195000099 ], [ 99.083303333000103, 19.000658414 ], [ 99.083032034, 19.00120236 ], [ 99.083310936, 19.001576114 ], [ 99.0838399390001, 19.001902173000101 ], [ 99.084118735000104, 19.002058398 ], [ 99.084447568000101, 19.002234988000101 ], [ 99.085019366, 19.002384281 ], [ 99.085469625000101, 19.002431657 ], [ 99.085834096, 19.002424692 ], [ 99.086232274000096, 19.002486289 ], [ 99.086388869000103, 19.00288218 ], [ 99.0861220930001, 19.003360049 ], [ 99.085785401000095, 19.0038742300001 ], [ 99.085423227, 19.0042977190001 ], [ 99.084818906000095, 19.004912107000099 ], [ 99.083606375, 19.006450021 ], [ 99.083327777000093, 19.006701666 ], [ 99.082891928, 19.006905801000102 ], [ 99.082413215000102, 19.007150732000099 ], [ 99.082141798000094, 19.007470353 ], [ 99.081978135, 19.007709002000102 ], [ 99.081485877, 19.008552719 ], [ 99.081154658000102, 19.009159257 ], [ 99.081013250000098, 19.009385044000101 ], [ 99.080468389, 19.009990226000099 ], [ 99.079975910000101, 19.010396570000101 ], [ 99.0795163720001, 19.0107568610001 ], [ 99.079155205000106, 19.011271657000101 ], [ 99.078958457000098, 19.011959034 ], [ 99.078902483, 19.0122011170001 ], [ 99.078699587000102, 19.013078539 ], [ 99.078313269, 19.014207728 ], [ 99.078594151000104, 19.014274394 ], [ 99.079015506000104, 19.014430036 ], [ 99.079483677, 19.014607925000099 ], [ 99.080022082000099, 19.014819168 ], [ 99.080525405000103, 19.015086076 ], [ 99.080876596000095, 19.015341924 ], [ 99.08123763, 19.015584569000101 ], [ 99.081625817000102, 19.015909237000098 ], [ 99.082058939, 19.016187305000098 ], [ 99.082492135000095, 19.016610066000101 ], [ 99.082734661000103, 19.017077711000098 ], [ 99.082670106000094, 19.0177105980001 ], [ 99.082662179000096, 19.0177883120001 ], [ 99.082617444, 19.018755912000099 ], [ 99.082504633, 19.019218247 ], [ 99.082366003000104, 19.019520019 ], [ 99.082094672, 19.020031689000099 ], [ 99.081823705, 19.020267019000102 ], [ 99.081578332, 19.02042276 ], [ 99.081352435, 19.020788390000099 ], [ 99.081216928000103, 19.0210679730001 ], [ 99.081025059000098, 19.021680856 ], [ 99.08099746, 19.021749857 ], [ 99.080754095, 19.022358279000098 ], [ 99.080636654, 19.022603246000099 ], [ 99.080316642000099, 19.023056103 ], [ 99.079990995000102, 19.023715027 ], [ 99.079984083000099, 19.023729013 ], [ 99.079589023, 19.024223866000099 ], [ 99.079006965000104, 19.0252530540001 ], [ 99.078445724000105, 19.026321801000101 ], [ 99.078050814000093, 19.0271530310001 ], [ 99.07740642, 19.0283999010001 ], [ 99.076782813000094, 19.029626968000098 ], [ 99.076610031000101, 19.029976549 ], [ 99.07645023, 19.030299873 ], [ 99.076429599000093, 19.0306956270001 ], [ 99.076616982000104, 19.030972572000099 ], [ 99.076866821000095, 19.031328637000101 ], [ 99.077095836000098, 19.0316649230001 ], [ 99.077595379000101, 19.032080248000099 ], [ 99.078323845000099, 19.032614193 ], [ 99.079376028000098, 19.033479642 ], [ 99.079718401, 19.033761258 ], [ 99.080130655000104, 19.034124298000101 ], [ 99.080589032, 19.034527336000099 ], [ 99.081321162000094, 19.035145663 ], [ 99.081633416, 19.03546212 ], [ 99.081883239, 19.035758819 ], [ 99.082047394000099, 19.036369677 ], [ 99.081891558000095, 19.0368149600001 ], [ 99.081501609, 19.0371713000001 ], [ 99.0812520140001, 19.037349498 ], [ 99.080955604000096, 19.037527710000099 ], [ 99.0806591690001, 19.037661405000101 ], [ 99.080315914, 19.037780279000099 ], [ 99.079988295000106, 19.037958503 ], [ 99.079660679000099, 19.0381515720001 ], [ 99.079130277, 19.038522808 ], [ 99.078849512, 19.038790058000099 ], [ 99.0786469170001, 19.039368921000101 ], [ 99.078508300000095, 19.039834255000098 ], [ 99.079376362000104, 19.040424312 ], [ 99.080007045000102, 19.040853727000101 ], [ 99.081173655, 19.041392818000102 ], [ 99.083306366, 19.042656993 ], [ 99.08522673, 19.043638798000099 ], [ 99.08573269, 19.043820929 ], [ 99.086466215000101, 19.0440849780001 ], [ 99.087717856, 19.044300848 ], [ 99.089776863000097, 19.0442051100001 ], [ 99.091470521000105, 19.044077948000101 ], [ 99.0935297810001, 19.0444874780001 ], [ 99.095323403000094, 19.044928718000101 ], [ 99.097425474, 19.045864317000099 ], [ 99.097761368000107, 19.046195196 ], [ 99.097948417000097, 19.046622388000099 ], [ 99.097848775, 19.047264439000099 ], [ 99.097110963, 19.048781392 ], [ 99.096990785000102, 19.049498177 ], [ 99.096991103000093, 19.050042881 ], [ 99.097151058000094, 19.050538244000101 ], [ 99.097278029000094, 19.050931469 ], [ 99.0975854470001, 19.051307036 ], [ 99.09846179, 19.051928159000099 ], [ 99.099246681000096, 19.0523799280001 ], [ 99.100642216, 19.053421374 ], [ 99.101539458, 19.054242005 ], [ 99.101949866, 19.055197687 ], [ 99.101939091000105, 19.0560176810001 ], [ 99.101758448000098, 19.056433480000099 ], [ 99.1014083580001, 19.057116021000098 ], [ 99.101243024, 19.058347795 ], [ 99.101775553, 19.0601792460001 ], [ 99.102183289, 19.0609199260001 ], [ 99.102540234000102, 19.061410505 ], [ 99.105214795000094, 19.063125722000098 ], [ 99.107235662000093, 19.0643143180001 ], [ 99.107612725000095, 19.0645864520001 ], [ 99.107757006, 19.064818363 ], [ 99.108286961, 19.065847798 ], [ 99.108410744000096, 19.066178014000101 ], [ 99.1086294280001, 19.066693950000101 ], [ 99.108791937, 19.067183223 ], [ 99.109079344000094, 19.067844443000102 ], [ 99.109304276, 19.068366303000101 ], [ 99.109599927, 19.068928068 ], [ 99.11074683, 19.07018578 ], [ 99.111153820000098, 19.070670639000099 ], [ 99.111871437, 19.0712818330001 ], [ 99.112618543000096, 19.071752402000101 ], [ 99.113321110000101, 19.071941777000099 ], [ 99.113486775000098, 19.071894409 ], [ 99.113817752, 19.071538159000099 ], [ 99.114138862000104, 19.071097938 ], [ 99.114636262, 19.070499774 ], [ 99.115249387000105, 19.069683875000099 ], [ 99.115905230000095, 19.068789789 ], [ 99.116559427000098, 19.067836326000101 ], [ 99.117170135, 19.067095434000102 ], [ 99.117692303000098, 19.066635792000099 ], [ 99.118273809000101, 19.066438563000101 ], [ 99.119091952000105, 19.066297429 ], [ 99.120353828000106, 19.066296610000101 ], [ 99.121024187, 19.066286809000101 ], [ 99.121447971000094, 19.0661177980001 ], [ 99.121979866000103, 19.065498787 ], [ 99.122550974, 19.06458917 ], [ 99.123023603, 19.0638014630001 ], [ 99.123321587000106, 19.063114931 ], [ 99.123978484000105, 19.061972969000099 ], [ 99.124362419000093, 19.061260313 ], [ 99.124489935, 19.060397857000101 ], [ 99.124685768000106, 19.059253708 ], [ 99.124842742000098, 19.057623 ], [ 99.124911148000095, 19.056826198000099 ], [ 99.124630401, 19.0551896210001 ], [ 99.124643436, 19.0547454320001 ], [ 99.124771412000101, 19.054511 ], [ 99.125283594000095, 19.053948242 ], [ 99.125864822, 19.053451031000101 ], [ 99.126130715, 19.053104023000099 ], [ 99.126622584000103, 19.051782008 ], [ 99.126898094000097, 19.051116286 ], [ 99.127173778, 19.050703657 ], [ 99.12776483, 19.050168944000099 ], [ 99.128138981000106, 19.049625016 ], [ 99.128582206, 19.049146654 ], [ 99.128860028000105, 19.048858812 ], [ 99.129242093000101, 19.048424415000099 ], [ 99.129803731, 19.048142824 ], [ 99.130483732000101, 19.047945487 ], [ 99.1312327670001, 19.047794986 ], [ 99.132080435, 19.0477193880001 ], [ 99.132711228000105, 19.047625197000102 ], [ 99.133619862, 19.047678929 ], [ 99.133786164000099, 19.047662948 ], [ 99.134288371000096, 19.047614675 ], [ 99.134820482000094, 19.0473893220001 ], [ 99.1351750460001, 19.047004747000098 ], [ 99.135204353000105, 19.046695404 ], [ 99.135057047, 19.046184037 ], [ 99.134671124000107, 19.0455334490001 ], [ 99.134670268, 19.0455319070001 ], [ 99.134010876, 19.044346402 ], [ 99.133831958000101, 19.043893675 ], [ 99.133673556000105, 19.043022039 ], [ 99.133672881000095, 19.042178413 ], [ 99.1338200470001, 19.041315917000102 ], [ 99.134085640000094, 19.040640832000101 ], [ 99.134380771000096, 19.0399375800001 ], [ 99.134676091000102, 19.039459313000101 ], [ 99.135030799, 19.0392997000001 ], [ 99.135612306, 19.039243024 ], [ 99.136617784000094, 19.0393360200001 ], [ 99.137327538000093, 19.039429232 ], [ 99.137830316000105, 19.039531979000099 ], [ 99.1384217720001, 19.039578405 ], [ 99.139627979000096, 19.0397299420001 ], [ 99.140611244000098, 19.039778416 ], [ 99.141379982, 19.0396723600001 ], [ 99.142089406000096, 19.0393765580001 ], [ 99.142917059000098, 19.038996284000099 ], [ 99.143589457000104, 19.038616128000101 ], [ 99.144106595, 19.038222029000099 ], [ 99.144231957, 19.037863389000101 ], [ 99.1441650390001, 19.0374275570001 ], [ 99.143942801, 19.036879381000102 ], [ 99.143668706000099, 19.036218746 ], [ 99.143508514000104, 19.035505187000101 ], [ 99.143695409, 19.03391872 ], [ 99.144441648000097, 19.0321377080001 ], [ 99.145097808000102, 19.030775510000101 ], [ 99.145489391000098, 19.0301924020001 ], [ 99.146117235000105, 19.029608383 ], [ 99.146715461, 19.029010340000099 ], [ 99.147192222000101, 19.028653775000102 ], [ 99.147505896, 19.028419174000099 ], [ 99.148599277000102, 19.027680122 ], [ 99.149375121, 19.027320956 ], [ 99.1501436140001, 19.027010992 ], [ 99.151015619000106, 19.0267360990001 ], [ 99.151850745, 19.0265385760001 ], [ 99.152419667000103, 19.026263923 ], [ 99.152692965000099, 19.026038731 ], [ 99.152813279, 19.025607726 ], [ 99.152832381000096, 19.024906742 ], [ 99.152750061000106, 19.023796032000099 ], [ 99.152749361000104, 19.023029729 ], [ 99.152806434000098, 19.021363567 ], [ 99.152833678, 19.0205681690001 ], [ 99.152867654, 19.019961757 ], [ 99.152923043, 19.018973132 ], [ 99.152870509000095, 19.018094391 ], [ 99.152714138000107, 19.016843132000101 ], [ 99.152659029000105, 19.016305475 ], [ 99.152564977000097, 19.015387979 ], [ 99.152490351, 19.014593629 ], [ 99.152348786000104, 19.0133634530001 ], [ 99.152340844, 19.012758858 ], [ 99.152384743000098, 19.012259674000099 ], [ 99.152569066000098, 19.011760371 ], [ 99.1528570830001, 19.011492981000099 ], [ 99.1533889090001, 19.011105873000101 ], [ 99.154135106000098, 19.010760774000101 ], [ 99.154940606000096, 19.010366023000099 ], [ 99.155579887, 19.010082011000101 ], [ 99.156322244000094, 19.009580483 ], [ 99.156898316000095, 19.009094907000101 ], [ 99.157418812000103, 19.008482835000098 ], [ 99.158044769000099, 19.008007751 ], [ 99.158604332, 19.007659268000101 ], [ 99.159152932, 19.007458432000099 ], [ 99.159530037000096, 19.0076215620001 ], [ 99.159835221, 19.007932393 ], [ 99.160112856000097, 19.008422516000099 ], [ 99.160235102000101, 19.008722949000099 ], [ 99.160545705000104, 19.008912507 ], [ 99.160878371000095, 19.008964943 ], [ 99.161892790000095, 19.008942964 ], [ 99.162170198000098, 19.008927985000099 ], [ 99.162984793000106, 19.008884002000102 ], [ 99.164614599000103, 19.008919468 ], [ 99.165026199000096, 19.008917167 ], [ 99.165734361, 19.008913208 ], [ 99.1660401930001, 19.008911221000101 ], [ 99.167546925000096, 19.008901415 ], [ 99.169055635000106, 19.009104836000098 ], [ 99.171079597000102, 19.009165074000101 ], [ 99.172058775, 19.009039969000099 ], [ 99.172581263, 19.0092257750001 ], [ 99.172650065000099, 19.00929109 ], [ 99.173368429, 19.0099730270001 ], [ 99.173757592000101, 19.010342449000099 ], [ 99.175325730000097, 19.011520847 ], [ 99.176044157, 19.011768555000099 ], [ 99.176958058000096, 19.0116434870001 ], [ 99.178033290000101, 19.011363459000101 ], [ 99.178393999, 19.011269513000101 ], [ 99.180221588000094, 19.010833054 ], [ 99.181983951000106, 19.010458737 ], [ 99.182712734000106, 19.009995576000101 ], [ 99.182962589000098, 19.0098367800001 ], [ 99.185896859000096, 19.006542628 ], [ 99.1874002590001, 19.005109588 ], [ 99.187592486000099, 19.004926353 ], [ 99.189629476000107, 19.004281994000099 ], [ 99.191027094, 19.0039568820001 ], [ 99.191920593000106, 19.003855219000101 ], [ 99.1929332590001, 19.003766017 ], [ 99.1933662550001, 19.003662682 ], [ 99.193816346000105, 19.003441907 ], [ 99.194292087000093, 19.0031476720001 ], [ 99.194871423000095, 19.003001457 ], [ 99.195192307000099, 19.002742832 ], [ 99.195500586, 19.002289661000098 ], [ 99.1957316740001, 19.001848810000102 ], [ 99.196258800000095, 19.001493320000101 ], [ 99.196734647000099, 19.0012969920001 ], [ 99.197287735, 19.001137295 ], [ 99.197596481000105, 19.001088008000099 ], [ 99.198291159000107, 19.0009771100001 ], [ 99.198805829, 19.000976558 ], [ 99.199346385000098, 19.001098368 ], [ 99.200015838000098, 19.001415861000101 ], [ 99.200389156000099, 19.001562329 ], [ 99.200826524, 19.001476177 ], [ 99.2010836420001, 19.001292316 ], [ 99.202566932000096, 18.999773465 ], [ 99.203101451000094, 18.999405294 ], [ 99.203847422000095, 18.999159689000098 ], [ 99.204516160000097, 18.998889693 ], [ 99.205228173000094, 18.99855804 ], [ 99.206713181000097, 18.997781644 ], [ 99.207560012, 18.9972651520001 ], [ 99.208091853, 18.99703021 ], [ 99.208933230000099, 18.9966403 ], [ 99.209102431000105, 18.996586804000099 ], [ 99.209569592, 18.996350552 ], [ 99.210006576000097, 18.995970642 ], [ 99.210208653000095, 18.995546783000101 ], [ 99.210301026000096, 18.9947953560001 ], [ 99.210352170000107, 18.9945382820001 ], [ 99.210583346000107, 18.994207561000099 ], [ 99.210827668, 18.994097132 ], [ 99.211252316000099, 18.994145605 ], [ 99.211651544000105, 18.994438884 ], [ 99.212128589000102, 18.9952216410001 ], [ 99.212760565000096, 18.996420346 ], [ 99.212967071, 18.996921909 ], [ 99.213434943, 18.997273549000099 ], [ 99.213893252, 18.997482182000098 ], [ 99.214801422000093, 18.997798587 ], [ 99.215534631000097, 18.998135054 ], [ 99.216499299000105, 18.998389115000101 ], [ 99.217602986, 18.998397201 ], [ 99.218558812000097, 18.99836795 ], [ 99.219229035000097, 18.998470275 ], [ 99.219889725000101, 18.998806940000101 ], [ 99.220491429, 18.999256155000101 ], [ 99.220912963, 18.9995206880001 ], [ 99.221240945, 18.999695825000099 ], [ 99.221625327000098, 18.999742235 ], [ 99.222295171, 18.999553953 ], [ 99.222770790000098, 18.999275691 ], [ 99.223407957000106, 18.99898082 ], [ 99.223871076000094, 18.998952135 ], [ 99.2243737350001, 18.9990171580001 ], [ 99.224718880000097, 18.999194835 ], [ 99.225280918000095, 18.999456605 ], [ 99.225655646000106, 18.999643624 ], [ 99.226493446000106, 18.999773843000099 ], [ 99.227882973000106, 18.999809626000101 ], [ 99.229213237000096, 18.999761115000101 ], [ 99.229833964000093, 18.999675986000099 ], [ 99.23020825, 18.9995536600001 ], [ 99.230739858, 18.99916868 ], [ 99.231123852000096, 18.998933854 ], [ 99.231508157000107, 18.998923994000101 ], [ 99.231971627000107, 18.999148396000098 ], [ 99.232474642000099, 18.999466468 ], [ 99.232878809000098, 18.999569061 ], [ 99.23352384, 18.999667335 ], [ 99.234880309000104, 18.999635938 ], [ 99.235805612, 18.999602841000101 ], [ 99.236495305000105, 18.999526985 ], [ 99.237046848, 18.999301314 ], [ 99.237505240000104, 18.998645841 ], [ 99.237774723000101, 18.9983629970001 ], [ 99.238328554000105, 18.998029212000102 ], [ 99.238995844, 18.997780268 ], [ 99.239685349000098, 18.997582519 ], [ 99.240473428000101, 18.997403401 ], [ 99.240939571000098, 18.997401638 ], [ 99.241364412000095, 18.997572433000101 ], [ 99.241853449000104, 18.997645225 ], [ 99.242213656, 18.99760804 ], [ 99.242946851000099, 18.99740017 ], [ 99.243567375000097, 18.997202515 ], [ 99.243941748000097, 18.997145771000099 ], [ 99.244503429000105, 18.997135667000101 ], [ 99.245134322000098, 18.997284804000099 ], [ 99.245814583000097, 18.997499503 ], [ 99.246554005000107, 18.997742226000099 ], [ 99.247465764000097, 18.997991695000099 ], [ 99.248634090000095, 18.998301854 ], [ 99.249718423, 18.998544120000101 ], [ 99.250664960000094, 18.9988896670001 ], [ 99.251434045000096, 18.999188583 ], [ 99.251947040000104, 18.999562821 ], [ 99.252249453, 18.999760276000099 ], [ 99.252499686000107, 19.000096371 ], [ 99.2525003370001, 19.000527554 ], [ 99.25219846, 19.001203726 ], [ 99.252099157, 19.001344794 ], [ 99.251119161000105, 19.0030151230001 ], [ 99.250984979000094, 19.003740346 ], [ 99.250964283000101, 19.004239838 ], [ 99.251205552, 19.004963952 ], [ 99.251599976000094, 19.005599569 ], [ 99.2521247560001, 19.006330359000099 ], [ 99.252657793000097, 19.0069108050001 ], [ 99.253062601000096, 19.007416429 ], [ 99.253072915000104, 19.0077163730001 ], [ 99.252837787, 19.008644677000099 ], [ 99.252632031000104, 19.009432351 ], [ 99.252573840000096, 19.01006047 ], [ 99.252702854000106, 19.01065083 ], [ 99.2529037, 19.011568197 ], [ 99.252961472, 19.012234623 ], [ 99.252932903, 19.012881449000101 ], [ 99.252864804000097, 19.013481439 ], [ 99.2526783120001, 19.013978509 ], [ 99.252491816, 19.014475562 ], [ 99.252374337, 19.0149912800001 ], [ 99.252454142, 19.015628576 ], [ 99.2526524660001, 19.016443803000101 ], [ 99.252978881, 19.017221367 ], [ 99.252969808, 19.0177463200001 ], [ 99.252803229000094, 19.018383951 ], [ 99.252695892000105, 19.019087115 ], [ 99.252687036000097, 19.019752656 ], [ 99.252966190000095, 19.020554068 ], [ 99.253224318, 19.021055512 ], [ 99.253430894000104, 19.02150807 ], [ 99.253469948, 19.021801753 ], [ 99.253342060000094, 19.0223282060001 ], [ 99.253021108, 19.022830444 ], [ 99.252584395, 19.023369559000098 ], [ 99.251872997000106, 19.023815551 ], [ 99.251476926000095, 19.0240505800001 ], [ 99.251195954000096, 19.024277138000102 ], [ 99.251041903, 19.024522129 ], [ 99.250965315000101, 19.024938356000099 ], [ 99.250991512, 19.025244297 ], [ 99.251301261, 19.025843588 ], [ 99.25181695, 19.026467077000099 ], [ 99.252217059, 19.027249823 ], [ 99.252398262, 19.027934965 ], [ 99.252445628, 19.028177043 ], [ 99.252553888000094, 19.028730285000101 ], [ 99.252631637, 19.0290851120001 ], [ 99.252812300000102, 19.029415316 ], [ 99.253070146000098, 19.0297209390001 ], [ 99.253418053000104, 19.030014197000099 ], [ 99.253971457, 19.030037915 ], [ 99.254473315, 19.0300127470001 ], [ 99.255744668, 19.029939977 ], [ 99.257407027000099, 19.029884384000098 ], [ 99.257857544, 19.0297999920001 ], [ 99.258268916000105, 19.029517919000099 ], [ 99.258675969000095, 19.029083202 ], [ 99.25922008, 19.028782248 ], [ 99.259497319, 19.028744514 ], [ 99.260020274000098, 19.028708261000101 ], [ 99.260629505000097, 19.028807756 ], [ 99.261151810000101, 19.028893058000101 ], [ 99.261627104000098, 19.028990225 ], [ 99.262224843000098, 19.028989378000102 ], [ 99.263487276, 19.028960668 ], [ 99.264316655000101, 19.029081003 ], [ 99.265114995, 19.029373594 ], [ 99.265385517000098, 19.029544554 ], [ 99.265605048000097, 19.030021559 ], [ 99.265503591000098, 19.030964105000098 ], [ 99.265543073000103, 19.031514804 ], [ 99.265659361000104, 19.0318083720001 ], [ 99.266002874, 19.03205726 ], [ 99.266619565, 19.0322162460001 ], [ 99.267815317, 19.032392159 ], [ 99.268507017, 19.032746459000101 ], [ 99.269666002000093, 19.033277698000099 ], [ 99.27035756, 19.033525402000102 ], [ 99.270681205000102, 19.033575731 ], [ 99.271029950000099, 19.0334888790001 ], [ 99.271589533000096, 19.032990649000102 ], [ 99.272391496000097, 19.032225594000099 ], [ 99.273062829000096, 19.031531783 ], [ 99.2734452320001, 19.031291658 ], [ 99.274033409000097, 19.031086221000098 ], [ 99.2746869570001, 19.031156462000101 ], [ 99.275408538000093, 19.031431622000099 ], [ 99.277052328000096, 19.0321626090001 ], [ 99.278565718, 19.032769951 ], [ 99.279778471, 19.033272958000101 ], [ 99.280169186000094, 19.033329516 ], [ 99.280419548000097, 19.033310084 ], [ 99.280810003000099, 19.033214239000099 ], [ 99.282012554000104, 19.032921747 ], [ 99.282392032000104, 19.032935595 ], [ 99.28272252, 19.033009484 ], [ 99.283083616000098, 19.033229821000099 ], [ 99.283234193000098, 19.033429623000099 ], [ 99.283686489, 19.034362402000099 ], [ 99.283913834, 19.034787105000099 ], [ 99.284613831000101, 19.0357600890001 ], [ 99.285307097, 19.037002532 ], [ 99.285610853, 19.037508629000101 ], [ 99.285850366, 19.037907692 ], [ 99.286504094000094, 19.0391577840001 ], [ 99.2867600390001, 19.039425097 ], [ 99.287095061000102, 19.039596977 ], [ 99.287814852000096, 19.039698865 ], [ 99.289104344000094, 19.040016619 ], [ 99.289475756000101, 19.040192404 ], [ 99.289628031000106, 19.040388851 ], [ 99.289871942, 19.041010234000101 ], [ 99.290049272, 19.0416484090001 ], [ 99.290360558, 19.042134171 ], [ 99.290725965, 19.042573395 ], [ 99.291651006000095, 19.043547764 ], [ 99.291725623, 19.0440782760001 ], [ 99.291638302000095, 19.045380268 ], [ 99.291679069000097, 19.045780263 ], [ 99.291859766000101, 19.046008583000098 ], [ 99.292426453000104, 19.046454620000102 ], [ 99.292451557, 19.046474386000099 ], [ 99.293192344, 19.046998898 ], [ 99.293674757000105, 19.047139214 ], [ 99.293957871, 19.047165449 ], [ 99.295171809000095, 19.046985869 ], [ 99.295527572000097, 19.046993377 ], [ 99.296386461000097, 19.047197102 ], [ 99.297331834, 19.0477048700001 ], [ 99.297883208000101, 19.047961167 ], [ 99.298204252000104, 19.0482464030001 ], [ 99.298485519000096, 19.048693636000099 ], [ 99.299098212, 19.049626118 ], [ 99.29947989, 19.0502065360001 ], [ 99.299881245000094, 19.050586899000098 ], [ 99.300446944, 19.05092109 ], [ 99.301415228000096, 19.0513654690001 ], [ 99.301886488, 19.051621881000099 ], [ 99.302197476000103, 19.051878552000101 ], [ 99.3023482440001, 19.052164062 ], [ 99.3022705260001, 19.053497724000099 ], [ 99.302132478, 19.054707652 ], [ 99.302143169, 19.055079121000102 ], [ 99.302454563000097, 19.055554871 ], [ 99.302735405000107, 19.055754443000101 ], [ 99.304211781, 19.0563331060001 ], [ 99.30463001, 19.056503817000099 ], [ 99.304821035, 19.05688451 ], [ 99.304831488, 19.057122623000101 ], [ 99.304476933, 19.058314779000099 ], [ 99.304283459, 19.058723766000099 ], [ 99.304344238000098, 19.059095149 ], [ 99.304478795000094, 19.059334879000101 ], [ 99.304715870000095, 19.059637474000102 ], [ 99.304756985, 19.060208922000101 ], [ 99.304315521, 19.061999828000101 ], [ 99.303999308000101, 19.062764217000101 ], [ 99.303931598000105, 19.063534588 ], [ 99.303797133, 19.064119650000102 ], [ 99.3035232000001, 19.064811638 ], [ 99.303484134000101, 19.065364166000101 ], [ 99.303755379000094, 19.06578283 ], [ 99.304166519, 19.0660107570001 ], [ 99.305220277, 19.066368407 ], [ 99.306210946000107, 19.066615459 ], [ 99.307538327, 19.067092907000099 ], [ 99.308510846, 19.067624209 ], [ 99.309483678, 19.068333163 ], [ 99.30977103, 19.068477991000101 ], [ 99.310156716000094, 19.068562978 ], [ 99.310813124, 19.068600061 ], [ 99.311314251000098, 19.068723042 ], [ 99.311745434, 19.068897812 ], [ 99.31230709, 19.069292878000098 ], [ 99.312452874000101, 19.069440363000101 ], [ 99.312899274000102, 19.0698919650001 ], [ 99.31320494, 19.070067796 ], [ 99.313621142, 19.070195542 ], [ 99.314232931, 19.070279222000099 ], [ 99.315213970000102, 19.070178539 ], [ 99.316015431, 19.070189869 ], [ 99.316643479, 19.070470509000099 ], [ 99.317299255000094, 19.070987783000099 ], [ 99.317598016, 19.071357091 ], [ 99.317879909000098, 19.072209313 ], [ 99.318125294000097, 19.073523469000101 ], [ 99.318071627000094, 19.074767067 ], [ 99.317979696000094, 19.07554886 ], [ 99.318036518, 19.075957348 ], [ 99.318298820000095, 19.076329945000101 ], [ 99.318652769, 19.076830165 ], [ 99.3189407670001, 19.077364863000099 ], [ 99.319064406000095, 19.077594414 ], [ 99.319255097000095, 19.078314052000099 ], [ 99.319413407000098, 19.078598762000102 ], [ 99.319918642000104, 19.078807876 ], [ 99.320518103, 19.078791838 ], [ 99.321117594, 19.078790794 ], [ 99.321528003000097, 19.078910074000099 ], [ 99.323232441000101, 19.079517979000101 ], [ 99.324843204, 19.0800442070001 ], [ 99.326106410000094, 19.080611949000101 ], [ 99.327085275000101, 19.0809851980001 ], [ 99.327919154000099, 19.0810887690001 ], [ 99.329148444000097, 19.081212904 ], [ 99.331505042000103, 19.0815185760001 ], [ 99.331738291000093, 19.0816287110001 ], [ 99.332042996, 19.081973177000101 ], [ 99.332366787000097, 19.082614158000101 ], [ 99.332680890000105, 19.083032418000101 ], [ 99.3331417240001, 19.083394572 ], [ 99.333289182, 19.083701446000099 ], [ 99.333387879, 19.084101487000101 ], [ 99.333654416000101, 19.085208576000099 ], [ 99.333871637000101, 19.086129608 ], [ 99.334187226, 19.0872831450001 ], [ 99.334449101000104, 19.088359711000098 ], [ 99.334473495000097, 19.088460000000101 ], [ 99.334736432000099, 19.089390257 ], [ 99.334893965, 19.0898367200001 ], [ 99.335025075, 19.0901219090001 ], [ 99.335325929000106, 19.090431604000099 ], [ 99.335809504000096, 19.090728556 ], [ 99.336136590000095, 19.0911002560001 ], [ 99.336595029000094, 19.091876579 ], [ 99.337302746, 19.093271383000101 ], [ 99.337799685, 19.093715672 ], [ 99.338126806, 19.094099774 ], [ 99.338858818000105, 19.094594822 ], [ 99.340659826, 19.0956495930001 ], [ 99.341685089000094, 19.0953461410001 ], [ 99.342482668000102, 19.09492068 ], [ 99.342864171000102, 19.094717166000098 ], [ 99.343267432000104, 19.094312039 ], [ 99.343568083, 19.0938072870001 ], [ 99.343671384000103, 19.093301236000102 ], [ 99.343802651, 19.092621739 ], [ 99.343999430000096, 19.091621639 ], [ 99.344116770000099, 19.0908805820001 ], [ 99.344102473000106, 19.090353232 ], [ 99.344057283, 19.089340861 ], [ 99.344014364, 19.088952079 ], [ 99.344167627, 19.088429897 ], [ 99.344469786, 19.0880526330001 ], [ 99.344421703000094, 19.087580387000099 ], [ 99.344339576, 19.087208215 ], [ 99.344320932000102, 19.086677769000101 ], [ 99.344462042, 19.086302540000101 ], [ 99.344910334000105, 19.086067965 ], [ 99.345789003, 19.08580755 ], [ 99.346160177000101, 19.085706617 ] ] ] ] } }
]
}
